facility_sk,Facility_Name,account_name,dba,pacfa_license_number,address,city,county,state,zip_code,latitude,longitude,region_polygon
134bf5de9df3e4e4a207cdfc5f056ea8,A cat rescue out in the sticks,A Cat Rescue Out in the Sticks,N/A,,,Eckley,YUMA,CO,,,,
159f60ba27fb08d5bafe5a2d4d08dee1,Animal Hospital of Telluride,,,,,,,,,,,
02ca8f4cbc09c4d82a1bd263200ea24d,"Ark Valley Humane Society, Inc","Ark Valley Humane Society, Inc",N/A,PL0006A2,701 Gregg Dr,Buena Vista,CHAFFEE,CO,81211,,,
f21672c2c731fbf7123ecfe7131b1d2e,"Cavalier King Charles Spaniel Club Rescue, Inc.","Cavalier King Charles Spaniel Club Rescue, Inc.",CKSCSCR or Cavalier Rescue USA,,,Boulder,BOULDER,CO,,,,
07e9a806d7ecce2be111c138be87bcfc,Cavy Care Inc,Cavy Care Inc,N/A,PL000C7K,,Aurora,ARAPAHOE,CO,80015,41.75527,-88.309507,1715
2cda6fb824056ff9f8794a4c92078269,City of Burlington Animal Shelter,City of Burlington Animal Shelter,N/A,PL000AUJ,"",Burlington,KIT CARSON,CO,80807,39.30193,-102.224478,1009
2b8d8af6330d5c665a70a075e3de91e7,Golden Retreiver Freedom Rescue,,,PL001011,8653 E 148th Lane,,Adams County,,80602,,,
5eedafe18ece9a2bd2a42435b659ae89,Homeless Boxer Care,,,,,,,,,,,
d3f75a9b3310a6d78280be635d8a1007,MaxFund Cats,,,,,,,,,,,
5eda24e5ad3492dd1e94e3c44e723e0f,MaxFund Meow Manor,,,,,,,,,,,
9144a6b8f752ef2a2fbb4e633e5f8402,Acadiana Animal Aid,,,,"",Walsenburg,Huerfano County,"",81089,37.654968,-104.803148,1006
c9ce784aea89935a224525c750d470ef,ROCKY MOUNTAIN YORKIE RESCUE,Rocky Mountain Yorkie Rescue,N/A,PL0017GB,"",Parker,DOUGLAS,CO,80134,39.518515,-104.762773,3133
6ab53ae8d62224fad0db3b68f363f9d4,San Nicola Dog Rescue,,,,,,Lincoln County,,,,,
5609096cc5bdc94f0f92870d0e33795c,"Whimpers to Wags Rescue, Inc.","Whimpers to Wags Rescue, Inc.",N/A,,,Colorado Springs,EL PASO,CO,,,,
59216fc3c2bbbc8e0a5e6630df604975,"Colorado Wyoming Vizsla Rescue Group, Inc",,,,,,,,,,,
1df66a9ab9b3bbed1edf4bb43ee8fb7b,InsideReef llc,InsideReef LLC,N/A,,,Colorado Springs,EL PASO,CO,,,,
b71ef448d7d05dc35b9422a38e3cc9d3,Paws For Life,,,PL00009U,800 N Pueblo Blvd,,Pueblo County,,81003,,,
720c0091107809eb8aac58ae47788f28,"Springer Spaniel Rescue, Inc","Springer Spaniel Rescue, Inc",N/A,,,Morrison,JEFFERSON,CO,,,,
bd10ffc505e4d8194742adf61a5acf9a,Aspen leaf Aviaries dba World of birds,,,,,,,,,,,
32f93632d4ab6cf4e23c0168cbbba805,Cats Alive SLV,cats alive slv,N/A,,,Del Norte,RIO GRANDE,CO,,,,
b42f8f421594806e79df08b3711e4145,"Denver Samoyed Association, Inc.",,,,"",Broomfield,Broomfield County,"",80023,39.969874,-105.01913,86
d1f7763865de5ed0c2544f252501d89f,Eagle County Animal Shelter & Services,,,PL000AQS,1400 Fairgrounds Rd,,Eagle County,,81631,,,
e4e7bf28ef484fce43f294500f838f85,Black Ops Rescue,Black Ops Rescue,N/A,,,Northglenn,ADAMS,CO,,,,
d116950021fd4af93b86f30b62a108b6,Colorado Reptile Humane Society,Colorado Reptile Humane Society,N/A,PL000ABH,13941 Elmore Road,Longmont,WELD,CO,80504,40.165729,-105.101194,85
ee56b493f4ca7103f4fdaf3612616b80,"High Country Basset Hound Rescue and Adoption Service, Inc.",,,,,,,,,,,
b4e4a25b90cb9cb1a05e218c5c4be0cd,Moe Moes Rescue of the Rockies,,,,,,,,,,,
f495199bf9ba230417aab0804a3debd4,Pets r people too,,,,,,,,,,,
5770d4b8a65d1af1d54eebe2db22ab8f,Rocky Mountain Scottie Rescue,,,,,,,,,,,
ddd4ce446196bfa5f70703cf16dc0052,El Paso County Canine Rescue,El Paso County Canine Rescue,N/A,,,Elbert,ELBERT,CO,,,,
e647b22f21cbe033d01efd48e7519587,German Shepherd Rescue Of Central Colorado,,,PL0010TH,2660 Campfire Rd,Hartsel Colorado,Park County,,80449,35.500801,-117.9478,1192
a49bdcabfaeca71ce5958c5aca1d8efa,"Humane Society of the South Platte Valley, Inc.",,,PL00150J,"",Littleton,Arapahoe County,"",80120,39.612653,-105.016198,1395
105952feaf911ef3f2afaefd75402427,Annie's Orphans,,,PL000G65,1630 CR 214,Durango,La Plata County,,81303,37.28225,-107.877762,1011
0a463d974ea33fab4a12cc6ac16913b1,For The Howl Of It Inc.,,,,,,Mesa County,,,,,
4f6252ba346927456e41b511af815e98,Rangely Animal Shelter,,,PL0006Q7,,Rangely,Rio Blanco County,,81648,40.087511,-108.803932,1065
ab5ff37168beb5e770487ab86b6022d6,Thunder Puppy K9 Rehabiitation and Rehoming,,,,,,Jefferson County,,,,,
20fd3ba90548140b12208dfaeb9b9ff4,Chow Dow Pet Supplies,,,PL000MLR,1260 Bergen Parkway,,Jefferson County,,80439,,,
522c1b3d46dc36282be08c338abaa532,Paws and Effect Canine Rescue of Colorado,,,,,,Adams County,,,,,
e92e47678e1ffdc1e03ecaba3f17c327,Rocky Mtn German Shorthaired Pointer Rescue,,,,,,Fremont County,,,,,
af45ebdfce8bccead2efd405e4bf0784,Town of Platteville,Town of Platteville,N/A,PL000S9T,,Platteville,WELD,CO,80651,40.213704,-104.823231,1072
e52f3ecef71151fb6f2691dde5eedf03,"Cisco Kidd, LLC",,,PL001FAU,22351 E Bayaud Ave,,Arapahoe County,,80018,,,
88b8c0639f9d42a96e452a8f3d594ebb,"Freedom Service Dogs, Inc",,,PL000PPB,2000 W Union Ave,,Arapahoe County,,80110,,,
55e2471679c44c7b45875f1e73b73d4d,Gray Muzzle Society,Gray Muzzle Society,N/A,,,Lakewood,JEFFERSON,CO,,,,
64fdafe3bcbd679d89e24c30d185b014,Majestic Canine Rescue,,,PL00197M,"",Yoder,El Paso County,"",80864,45.129877,-122.681388,1447
1c066470803531f0d29e0e5e3c5ee558,Ark-Valley Humane Society - Main Shelter,,,,,,,,,,,
05f1c9eaff1caf965c8b28eea091f9bb,"Duncan's Place, A Cat Sanctuary",,,,"",Loveland,Larimer County,"",80537,40.380215,-105.127331,1012
fa3ea7982e4a44898260dab0b0eb63d4,Montrose Animal Services,,,,,,,,,,,
a3675e3ccc6eea6de26f1b62adf375c5,Animal Aid of Colorado,Animal Aid of Colorado,N/A,,,Berthoud,LARIMER,CO,,,,
d32b82dbe411a1f4817de001e4c4007f,"Buck'n-R-Ranch Animal Rescue, Inc.",,,,"",Franktown,Douglas County,"",80116,39.337137,-104.713239,3133
5a149a69a291092e24841ce975d356c8,Doggie Designs/shelter,,,PL001GFE,6508 s lunar ct,,Larimer County,,80525,,,
4ffa89b1c95baf94134ebeebe2391505,Eaton Animal Den,,,PL000RL9,"",Eaton,Weld County,"",80615,43.909747,-71.081718,1072
69939cf5f123da115c463af6f50426a8,Humane Society Of Moab Valley,,,,,,,,,,,
f84c651eab14795b6c3b0b0a0c0690ae,Riverdale Animal Shelter,,,,,,,,,,,
6ddeb8a2cae81e52a2d9ba1ee2f30a10,Shannon Cauthen,,,,,,Arapahoe County,,,,,
544ef9c8d51521144b489d316c40afec,Town of Telluride,,,,"",Telluride,San Miguel County,"",81435,37.937455,-107.864032,1069
e9259f30e009fb5b68fdc8b866604f84,from forgotten to forever rescue and transport,,,,,,El Paso County,,,,,
5b78c45c16ccf5750a66aa825b94faee,Pueblo Animal Services,,,PL000WE0,"",Pueblo,Pueblo County,"",81008,38.265425,-104.610415,34
da69f4f38f864c56318dd37d84c0fe72,Rocky Mountain Old English Sheepdog Rescue,Rocky Mountain Old English Sheepdog Rescue,N/A,,,Elizabeth,ELBERT,CO,,,,
4b314d563940daaa14ab5501ab455e7d,Beasties a pet store & more,,,,,,,,,,,
08129b065efdb83b321de35ec1667695,Colorado Senior Dog Rescue and Hospice,Colorado Senior Dog Rescue and Hospice,N/A,,,Golden,BOULDER,CO,,,,
f84e48f768e295c5b14002b8383b94b5,DELTA COUNTY HUMANE SOCIETY,Delta County Humane Society,N/A,PL000DA9,"",Delta,DELTA,CO,81416,38.741684,-108.070175,1443
f6d4f5be0c64ccfc869e591f00fac223,Eastern Plains Animal Welfare Alliance-EPAWA (Old Location),,,,,,,,,,,
be8ead032667667288bf4826a7ff0e8e,German Shepherd Rescue of Central Colorado ,,,,"",Hartsel,Park County,"",80449,38.904284,-105.905756,1062
a313a2873be6b2ecee81c47f5e71d24d,Safe Habrbor Lab Rescue,,,,,,,,,,,
f25b56b559d3f03efed2ab9db3aef0f3,Bounce Animal Rescue,Bounce Animal Rescue,N/A,PL002SYX,"",Fort Collins,LARIMER,CO,80525,40.588972,-105.082459,1012
248f3de6ce235022e377355286b7e1db,CITY OF LAS ANIMAS/COUNTY OF BENT SHELTER,,,,,,Bent County,,,,,
967fa75cc3513bfb131beea7887857d3,Graceland Animal Rescue and Sanctuary,,,,,,,,,,,
59d85bd4e6b96c7f763f5986672c5459,Blue Sky Satos Animal Rescue,,,,,,,,,,,
891ad763dd285af633847704d697083d,Happily Ever After Canine Rescue,,,,,,,,,,,
01176efb3b3d8be11ae8646bd1292277,PetSmart Aurora Animal Shelter,,,,,,,,,,,
790e966ec0a0e820dc805d7782c7e6d3,Rachel's Forgotten Felines,,,,,,,,,,,
19b8953371076fd61c5f7c910eba74e9,Found Nation Dog Rescue,,,PL001Y92,,Arvada,Jefferson County,,80003,39.801122,-105.081451,1008
d6815612f81b21212b6717e85e2a29d7,Humane Society of Pagosa springs,,,PL000X87,"",Pagosa Springs,Archuleta County,"",81147,37.266324,-107.013125,1396
94af414c4809d58248b70309dd1443c3,Summit dog rescue,Summit Dog Rescue,N/A,PL002L3E,"",Boulder,BOULDER,CO,80304,40.015831,-105.27927,85
f38d8fa67a89f9e3db60f183d9376b4f,Amigos de los Animales Colorado,Amigos de los Animales Colorado,Blue Sky Satos Animal Rescue,,,Littleton,JEFFERSON,CO,,,,
688b0df7b980bed4c2610d55ede87e99,Cat Care Society,Cat Care Society,N/A,PL000G90,"",Lakewood,JEFFERSON,CO,80214,39.710997,-105.088872,1008
039904c375eecec6c47c03f514936026,Kneady Kitten Rescue,,,,"",Denver,Denver County,"",80219,39.696096,-105.034969,1444
0d5fc8ea551fdc5fc363a4780ebb6e07,Pearls Sunrize Sanctuary,,,,,,,,,,,
f2bfbcb5672653d97aa3d99f3f268f14,Rottie Aid,,,PL000V2T,"",Littleton,Jefferson County,"",80128,39.612653,-105.016198,1008
f3279d07ae9a660ba5ffca6e21e76fb2,Town of Cheyenne Wells,Town of Cheyenne Wells,N/A,PL000D3P,"",Cheyenne Wells,CHEYENNE,CO,80810,38.82019,-102.349564,1399
4ac812765be7f8c4cb6676618c90c8b7,"Ark-Valley Humane Society, Inc. The Sunshine Shelter",,,PL001AC9,,Poncha Springs,Chaffee County,,81211,38.514048,-106.07543,1398
ada639e27b8ff9eccceaf6043970808f,Harmony Animal Matchmaker and Sanctuary,Harmony Animal Matchmaker and Sanctuary,N/A,,,Grand Junction,MESA,CO,,,,
0f84c6f56c78e0d14e59635d888df4cf,Highway Hounds Rescue & Transport,,,,,,,,,,,
efc62c8efc2a9dde21bcb82f63781b84,Intermountain Humane Soceity,,,,,,,,,,,
6625da84bcbfbee916f9306f714006a8,Little rescues on the Prairie,,,,,,,,,,,
5f0a8f5c4ba7d7bfe5d64737172011df,Must Love Pups formerly New Wave Pups,,,,,,,,,,,
e8e14b121c5371b46502fe0eb0100b7f,Tammy Swanson,,,,,,,,,,,
467a8372c13f1f1d704b7208ea06b325,"Westie Rescue Network, Inc.","Westie Rescue Network, Inc.",N/A,PL00053L,"",Erie,WELD,CO,80516,42.127951,-80.08258,85
b719f0a5495e3535f973556187912bee,Colorado Wyoming Viszsla Rescue Group Inc,,,,,,,,,,,
1c221b165beda6dc89fdf46c58cf6a7f,Friends of Cedaredge Animal Control,,,,"",Cedaredge,Delta County,"",81413,38.952644,-107.920549,1443
b12e81f1c2c40b6a47ee46f9b62afe6d,NEW HOPE CATTLE DOGS RESCUE & REHOMING,,,PL000VLS,"",Parker,Elbert County,"",CO,39.518515,-104.762773,3133
ddc319f8cbac5a538bd71a75f466eb73,The Tullios,,,,,,Adams County,,,,,
11c52e3d0cd9c8433fbbbab3ee83d7aa,iResQRR,,,,,,,,,,,
2e01788f1cec51ef6a0642307ac0f9b8,GERMAN SHEPHERD RESCUE OF THE ROCKIES,,,PL001B1T,"",Fort Morgan,Morgan County,"",80701,40.253979,-103.801495,1059
3c17c117524edfba3e8a1695c62a4023,Harley's Hope Foundation,Harley's Hope Foundation,N/A,PL001SUG,"",Colorado Springs,EL PASO,CO,80908,38.835224,-104.819798,1447
285deabb24d47c17cef07aa769563fda,Lifeline Puppy Rescue,Lifeline Puppy Rescue,N/A,,,Brighton,ADAMS,CO,,,,
33fa4b33c6b45399038fd76f940acbce,Mattersville,Mattersville,N/A,,,Yoder,EL PASO,CO,,,,
bed43ae896351cda4b2cf95d2d3f53e0,Old Soul Canine Rescue,Old Soul Canine Rescue,N/A,,,Golden,GILPIN,CO,,,,
0b296efddd1a28e99bb3e6c4d0b9996b,Paws and People ,,,PL000UH3,"",Denver,Denver County,"",80206,39.738453,-104.984853,1444
79872e9817bf172f000da6b5dbae8a9f,Town of Rangely,Town of Rangely,Town of Rangely Animal Shelter,,"",Rangely,RIO BLANCO,CO,81648,39.985893,-108.739215,1065
51db3ebbaa5ff0995b3008fcf00c2caf,"ANIMAL HOUSE PETS & GROOMING, INC.",,,,"",Fort Collins,Larimer County,"",80524,40.624808,-105.028464,1012
4419496f4a632492e0340b4f78d4aa74,Pikes Peak Parrot Rescue,,,,,,,,,,,
a501ba23f0514494a8c491f330adb721,Rocky Mountain Leos/ Michelle A Thompson,,,,,,,,,,,
adee119737f452bcf889e03d5341a2ba,Wagging Dog Rescue,Wagging Dog Rescue,N/A,,,Colorado Springs,EL PASO,CO,,,,
99dfe0e8f90e1db992b49e9fbee072e9,CACF,,,,,,Park County,,,,,
646cac4c96aafc30ccf95ca404878d52,"Freedom Service Dogs, Inc.","Freedom Service Dogs, Inc.",N/A,,"",Englewood,ARAPAHOE,CO,80112,39.575448,-104.870487,1395
2ea91e66dedb7dbefc99de77e5c8750e,Mile High Canine Rescue,,,,,,,,,,,
117670e5551ec10e47486d65b83a8127,Mother Gaia Animal Rescue,Mother Gaia Animal Rescue,N/A,,,Lafayette,BOULDER,CO,,,,
7241625d2ddd667f91697acae34d7a4f,Town of Rangely ,,,,,,Rio Blanco County,,,,,
63d782bc059a393e22eeb3cbee6fb745,All Paws Matter,,,,"",englewood,Arapahoe County,"",80110,39.6467,-105.007278,1395
f08ff95c20f6a959b3a2c2c7444b926d,Colorado Rhodesian Ridgeback Rescue,,,,"",Centenial,Arapahoe County,"",80112,39.575448,-104.870487,1395
b56ee2a0bde4b3a550c9c171fc36e0fe,Denver Kittens,Denver Kittens,N/A,,,Lakewood,JEFFERSON,CO,,,,
f72461d652593ec965b4b7349ec400b9,"Retriever Rescue of Colorado, Inc.",,,PL000UPS,"",Evergreen,Jefferson County,"",80439,39.633517,-105.328888,1395
ac28b3ca5439326aa4d85ca57ef7f635,Izzys place senior dog rescue,,,,,,,,,,,
e02c5f1b2ec7b3283d78d3fe70ed9dcc,Paradise Animal Welfare Society,Paradise Animal Welfare Society,N/A,PL000YWT,"",Crested Butte,GUNNISON,CO,81224,38.870681,-106.980937,1005
2b3fa7d497b2f5efb793226f4ff6b68e,The Old Mutt Hut,The Old Mutt Hut,N/A,,,Calhan,EL PASO,CO,,,,
86fdd497c9a2ec1bf3009b35bbf5fdd3,running dog ranch,,,PL0017CK,"",Dolores,Montezuma County,"",81323,37.516492,-108.403135,1058
b574ff5aa47ed3f6ea240949f8aac1e7,2 Blondes All Breed Rescue,,,PL002BA1,"",Littleton,Douglas County,"",80131,39.612653,-105.016198,3133
0e054f4293c3ff86c0124c9ff4d278b7,Colorado Peke and Pom Rescue Inc.,,,PL001TNN,,Arvada,Jefferson County,,80007,39.801122,-105.081451,1008
697480115814d8d14f7d2bde7868641e,"Gunnison Valley Animal Welfare League, Inc.","Gunnison Valley Animal Welfare League, Inc.",Sue MacAllister Animal Shelter and Adoption Center,,,Gunnison,GUNNISON,CO,,,,
d67e2d976579f1e92df8b4ad618b273d,SLV Spay and Neuter Alliance,,,,,,,,,,,
85c9e1c0d38aea1ebeb0fe3f781a6a08,"Teller County Regional Animal Shelter, Inc.","Teller County Regional Animal Shelter, Inc.",TCRAS,,,Divide,TELLER,CO,,,,
a9a194c8cb92300ddb5da97f8d0f503f,Mother Gaia Animal Rescue ,,,,"",Lafayette,Boulder County,"",80026,40.003145,-105.101742,85
ec16fe990f0637fe7d6d6d012221bc14,"Planned Pethood Plus, Inc",,,,"",Wheat Ridge,Jefferson County,"",80033,39.77425,-105.100584,1008
d02c10d65f0b6759bfba8c6923610a9e,ST North,,,,,,,,,,,
208b40e6987e28fbc22b3f53c5362c27,City of Wray Animal Shelter,City of Wray Animal Shelter,N/A,PL000846,"",Wray,YUMA,CO,80758,40.079064,-102.227509,1073
b1fe222771e3f07b2ad07cd3c525e9d6,JJs Helping Paws,,,,"",Pueblo West,Fremont County,"",81007,38.341733,-104.749697,34
b5339ee748a3eef46f8e9b22fef3e064,Journey Home Animal Care Center Inc,,,,,,,,,,,
90d027173da707d499eff1a72d3dffde,Land of Ahs Kennel,,,PL0004FZ,"",Fountain,El Paso County,"",80817,38.683108,-104.704554,1447
1234ca3976736b645f7f765add5c7124,Paired Souls Animal Rescue and Rehabilitation,,,,,,,,,,,
f7334f8dbde3085d30eff8db8914e067,Dumb Friends League San Luis Valley Animal Center,,,,,,,,,,,
51d2afc650cc0c8b6ea69074a42c44e9,Golden Retriever Rescue of the Rockies,Golden Retriever Rescue of the Rockies,N/A,PL001G50,"",Arvada,JEFFERSON,CO,80007,39.801122,-105.081451,1008
b010333ff35572ba68b119175474df58,Pawsecond chance rescue and thrift,,,,,,Morgan County,,,,,
78cde6362679b77c2545c79dc8129c52,Town of Meeker Animal Control Facility ,,,,,,,,,,,
7d990bc3e238a1baa768906fef0f2972,VOICES OF THE WILD FOUNDATION,,,PL0026VG,60169 La Salle Road,Montrose,Montrose County,,81403,38.478034,-107.876806,32
0e5766ca7d42c860b348769f9a4f834f,9 Lives Rescue,9 Lives Rescue,N/A,PL0009H9,"",Colorado Springs,EL PASO,CO,80922,38.835224,-104.819798,1447
f541d91a0d6a3a9331e81c8fe1bdbfda,Happy Little Rescue/Harmony,,,,,,,,,,,
aaba5945e354179ed3708f5df34a1f78,Pals forever Animal Rescue,,,PL00154A,P.O. Box 15602,,El Paso County,,80935,,,
8e569e59f8ed20f9c38412373f1b2550,Red Hill animal Health Center,,,PL001U99,955 Cowen Drive,Carbondale,Garfield County,,81623,37.725277,-89.21672,1712
92b541d99761e49ff7349998462052a2,Cat Care Durango,Cat Care Durango,N/A,,,Durango,LA PLATA,CO,,,,
f6e9ca23a50aedb670b1343e70c2c663,Innocent Paws Puppy Rescue,,,,,,Boulder County,,,,,
3a01c8d0528abff81debb8d3999d4ad8,"Pet Association of Estes Park, Inc",,,,,,,,,,,
d5618f3d77c0093b915e5f9321ba1af9,Bruno The Companion All Animal Rescue ,,,,,,,,,,,
985261cb1974d0e230971e24cd655c21,"Chihuahua & Small Dog Rescue, Inc.",,,PL000T9P,"",Colorado Springs,El Paso County,"",80907,38.835224,-104.819798,1447
5e1a75ab2d6207acc854f7821b9f78d1,Gunnison Underdog Rescue,,,,,,,,,,,
ab829b33dda6808c63528626f031d25b,CLAWS Furrever Home Sanctuary,CLAWS Furrever Home Sanctuary,CLAWS Furrever Home Sanctuary,,,Loma,MESA,CO,,,,
405a41d857521cd36af5771af38306b8,Miami Animal Alliance Inc.,,,,"",Denver,Denver County,"",80224,39.690104,-104.912108,1444
05e95dbd801e304f009fa101b2367376,RezDawg Rescue,,,PL0021JP,"",Littleton,Arapahoe County,"",81428,39.612653,-105.016198,1395
89ab2347267638c07d333c7d4a80e48b,Rocky MTN German Shorthaired Pointer Rescue,,,,,,Fremont County,,,,,
32f35945ebd22016bf329e6041568191,Southern CO Animal Rescue DBA Black Forest Animal Sancutary,,,PL001QJ9,,Black Forest,El Paso County,,80908,39.012834,-104.700525,1447
7ac421329d5d9180675f918722a67618,Mile Higjh German Shorthaired Pointer Rescue,,,,,,Arapahoe County,,,,,
cd4e3d18dd036cdc9e2083a73053cfc1,Peipeople Shar Pei Rescue,,,,,,,,,,,
2bf00c1ba2194398ec97ce6b69b0fd54,Rocky Mountain Collie and Sheltie Rescue Inc.,,,PL000L6Q,234 S. Hacienda Del Sol Dr.,Pueblo West,Pueblo County,,81007,38.322234,-104.739288,34
ec937e4bd7f5b5ec24107e12bc3afd82,All Breed Rescue & Training,,,,"",Colorado Springs,El Paso County,"",80907,38.87773,-104.821147,1447
e5e8e7a5ee6eb47ed7410ce118203dda,Chow Down Inc,Chow Down Inc,Chow Down Pet Supplies,,,Evergreen,JEFFERSON,CO,,,,
4ad85df96a36ad59eb77eb38c743302f,"Duncan's Place, a cat sanctuary",,,,"",Loveland,Larimer County,"",80537,40.380215,-105.127331,1012
2a38c2b198f7720c94761d2fc330ea36,Evergreen Animal Protective League,Evergreen Animal Protective League,N/A,PL000934,"",Evergreen,JEFFERSON,CO,80439,39.633517,-105.328888,1008
98162637c9ff197c17207c702e170d3d,"HeartFire Enterprises, Inc dba Happy Haven Farm & Sanctuary",,,PL0023Q3,67500 E. County Rd. 34,,Arapahoe County,,80103,,,
ece079cef99447d3ff1b26ada62cb354,Hoof and Paw,,,,,,Montrose County,,,,,
d1f6511960d28d6118e8e6a56c76ea96,Look what the cat brought in,,,PL002614,2129 E Boulder,,El Paso County,,80909,,,
1f2dd46740b2ee0b9d3f3e003d8b52bb,High County Basset Hound Rescue,,,,,,,,,,,
e9541371e8d886fb1d08fd43609c7c40,NoCo Cat Cafe,,,,,,,,,,,
446bd883442dff811cf200a320aa7b22,Colorado House Rabbit Society,,,PL000FR6,"",Broomfield,Broomfield County,"",80020,39.925616,-105.066301,86
b0c6ae7469a4c30c113ee1182375539b,Foster Kitten Mama,,,,,,,,,,,
9da649ca23acdee15f707968808770a6,Midamerica Boston Terrier Rescue,MidAmerica Boston Terrier Rescue,N/A,PL002TLJ,"",Littleton,ARAPAHOE,CO,80125,39.612653,-105.016198,3133
6ea3cf4ee0e943098fb661c02ac81a0d,Montrose Animal Shelter,,,,,,,,,,,
003874dca8e5fee1e17d857c4a2e5c7e,Aspen Boarding Kennel and Animal Shelter,,,,,,,,,,,
0d1bd52ac2292a1504d7a59f14cd541c,For The Love of Paws Corp,,,PL002JGV,,Lakewood,Jefferson County,,80226,39.710997,-105.088872,1008
4d7716019df3199b8282e85d8831a250,Moe Moe's Rescue of the Rockies,,,,,,,,,,,
dcb7e8756db5e5e83472805cd1dec99b,"New Hope Cattle Dogs, Rescue & Rehoming","New Hope Cattle Dogs, Rescue & Rehoming",N/A,,,Parker,ELBERT,CO,,,,
55e86ee77f66a4106f75572a2ddf45ce,Three Little Pitties Rescue,,,,,,,,,,,
9e883e5b01268b896f1ae3c7a71fccc2,Town of Crested Butte,,,PL001LQD,803 Butte Avenue,,Gunnison County,,81224,,,
4c35e34aae3f3b317974681510b8f6f8,A Friend of Jack Rescue,A Friend of Jack Rescue,N/A,,,Denver,DENVER,CO,,,,
1866f7980c24ed477122feb9d960a749,Golden Retriever Freedom Rescue,,,,,,Jefferson County,,,,,
c11063f31acc255f2b0a0a93d91b74ee,No Hound Unhomed,,,PL002U1H,,Colorado Springs,El Paso County,,80907,38.835224,-104.819798,1447
a3bf17254efff5e245c399c185ebdeaf,Rugby's Rescue House,Rugby's Rescue House,N/A,,,Pagosa Springs,ARCHULETA,CO,,,,
e54f00feeec1b77d53d6bdd1c0c67844,David J. Jackson,,,,,,,,,,,
fce6bac76485e564b45cecbd82723837,Delta County Citizens for Animal Welfare and Shelter,,,PL001H6U,"",Delta,Delta County,"",CO 81416,38.741684,-108.070175,1443
9a2441a32a3db2e17276941e711ef475,Second Chance Animal Rescue Foundation,Second Chance Animal Rescue Foundation,N/A,PL000QP7,"",Lamar,PROWERS,CO,81052,38.086092,-102.618982,1064
fcc4cdb7d53f5328368f2ba1e91e5713,"ASPEN/ PITKIN COUNTY ANIMAL SHELTER *, SACHSON, INC *",,,,,,Pitkin County,,,,,
af7db35de84e68d2c8bb3f0d6f332321,All Mixed Up Dog Rescue,All Mixed Up Dog Rescue,German Shepherd Rescue of the Rockies,,,Fort Morgan,MORGAN,CO,,,,
fe921beeb538798e8a8a5ce1da677a55,Dogs Unbroken,Dogs Unbroken,N/A,,,Berthoud,LARIMER,CO,,,,
f50e759104e75f17fac2708d54e9a66d,German Shepherd Rescue of Central Colorado,,,PL0010TH,2660 Campfire Rd,Hartsel Colorado,Park County,,80449,35.500801,-117.9478,1192
b9ad042fa762d05566f11921e7accfb0,CATS ALIVE!,,,PL0024Q0,11864 Willow St.,,Alamosa County,,81101,,,
8a51a6e19d8f54b279ae630b9a232f28,CLAWS Rescue and Adoption Center,,,PL0012LP,"2214 Sanford Drive, Unit A-5",,Mesa County,,81505,,,
4758e08d60375823fe640f74ae8b0dae,City of brighton Animal Shelter,,,PL0000EJ,"",Brighton,Adams County,"",80601,39.986767,-104.812604,82
000dbd4d4afdcce6fb6013d8316f1bf5,MaxFund Inc.,,,PL000926,"",Denver,Denver County,"",80204,39.738453,-104.984853,1444
ec66b717df4084a1cceec09949cd355e,Rifle Animal Shelter,,,PL0006JK,0569 cord 265,,Garfield County,,81650,,,
b4bb789b3b293ec6d14e92fcd54b9050,Roice-Hurst Humane Society Delta,,,,,,,,,,,
e32d7dfb798f53a4ee11720c9c623272,MaxFund Cat Shelter,,,,,,,,,,,
810f748f3edb2248d215cce7867ca8fe,Soul Dog Rescue,Soul Dog Rescue,N/A,PL002GQM,"",Fort Lupton,WELD,CO,80113,39.649436,-104.98891,1395
39921e86849a84b4d8315a1d9adb2e3c,CITY OF LA JUNTA ANIMAL SHELTER,,,PL0006BZ,"",La Junta,Otero County,"",81050,37.970779,-103.535324,1060
c6d80475a2e75a659d0fc6f42768c4e7,Humane Society of Fremont County,,,PL000043,110 Rhoades Ave,Canon City,Fremont County,,81212,38.442184,-105.23489,1448
15b5758181c8bc3ece271ea9bb1f4a2c,Humane society of the pikes peak region,Humane Society of the Pikes Peak Region,N/A,PL000035,"",Pueblo,PUEBLO,CO,80905,38.835224,-104.819798,1447
399d19f2762391979e3a67d0339f4459,"National Canine Advocacy Group, Inc.",,,,,,,,,,,
b75a42a26bebd94ead2341fd1274437d,Rocky Mountain Great Dane Rescue,Rocky Mountain Great Dane Rescue,N/A,,,Lakewood,JEFFERSON,CO,,,,
eb2a03da556602127a137cf62b1d616c,"Ark-Valley Humane Society, Inc, Salida",,,,,,Chaffee County,,,,,
90895cd963f20d568cadb5d74506a9e5,Colorado Feline Foster Rescue,Colorado Feline Foster Rescue,N/A,,,Morrison,JEFFERSON,CO,,,,
9068df89e94eda1f2d611457bf10364a,Estes Park Pet Lodge Inc.,,,,,,Larimer County,,,,,
5e68a57b2e954dd55cb11d9e88ff9876,National Brittany Rescue and Adoption Network,,,,"",Aurora,Arapahoe County,"",80017,39.694963,-104.787056,1395
21ddd79dfaf646ef66e7e09cb675972c,Safe Place Inc,,,,,,,,,,,
b1b0c98bc4d50070c4b925cc82561583,Stacy Marie Rochelle,Stacy Marie Rochelle,N/A,,,De Beque,MESA,CO,,,,
dedf8dba476899eee96809b2b4da8b0e,AWR Cat Tails Rescue Inc.,,,,,,Pueblo County,,,,,
711a974dc9e234c6162f4ed49a4f626d,Debi Stevens,,,,,,Fremont County,,,,,
299d03d2843a79be848bb1d1116d0383,Denkai Animal Sanctuary,Denkai Animal Sanctuary,N/A,,,Durango,LA PLATA,CO,,,,
aaada5ecdb3a7b6891eba4393f36c420,Pet project,,,PL000JPX,"",pueblo west,Pueblo County,"",81007,38.322234,-104.739288,34
312346be17ab1ed57dd6669dfee5b847,Shiba Scout Rescue (dba - Colorado Shiba Inu Rescue),,,PL0010UF,"",Centennial,Arapahoe County,"",80121,39.597307,-104.853811,1395
3ed95405cdc2b5e900b30e57aaa94436,Australian Shepherds Furever,Australian Shepherds Furever,Australian Shepherds Furever,,,Buena Vista,CHAFFEE,CO,,,,
fd696863f1cec6129941492c4ab8e4ed,Colorado Japanese Chin Rescue,,,PL001CA5,"",Aurora,Arapahoe County,"",80017,41.75527,-88.309507,1395
f0993bebdb15cf6e7abde32126a511e4,Lightshine Canine: A Rez Dog Rescue,LightShine Canine: A Rez Dog Rescue,N/A,,,Erie,WELD,CO,,,,
c00ea3985ef5e8cd56824bb7807f1bad,MaxFund Inc. (dba Cat Shelter),,,,,,,,,,,
472e2ba60fa4c406b517bc2076e1e6d3,Rocky Mountain Cocker Rescue,Rocky Mountain Cocker Rescue,N/A,PL0012Y0,6680 S Abilene Way,Pueblo,PUEBLO,CO,80111,,,
51c1253ddeab4ec5c842573098b46b92,Twice Purrfect Feline Rescue,Twice Purrfect Feline Rescue,N/A,,,Littleton,JEFFERSON,CO,,,,
da780b1129eea2d4ce587710688285a7,Wild Blue Cats,,,,,,,,,,,
62e44c0c1d5659fa834b4a5574674fa6,All mixed up dog rescue,All Mixed Up Dog Rescue,German Shepherd Rescue of the Rockies,,,Fort Morgan,MORGAN,CO,,,,
cce29bd106f0d5c13b61ef50d414342a,Circle 2 Ranch - An Animal Sanctuary,,,,,,Jefferson County,,,,,
61c34f47838dd8cfeb40a659011dc391,Good Samaritan Pet Center,,,PL002NK7,2831 W 24th Ave,,Denver County,,80211,,,
912f6a9f45d8346037482934ed5bac6a,Puppies N Stuff llc,,,,,,Adams County,,,,,
4db5db28013fa6b01217da1d806d7bca,Town of Meeker Animal Control Facility,Town of Meeker Animal Control Facility,N/A,PL0009GB,"",Meeker,RIO BLANCO,CO,81641,35.503209,-96.893033,1065
3f0eefe44bcf817333614be843e205e0,Douglas county canine rescue ,,,,"",Castle Rock,Douglas County,"",80104,39.345057,-104.838409,3133
9504d8eb7b11eb61baf0bea88ebfc8bd,Perfect Pets,,,PL002526,,Centennial,Arapahoe County,,80122,39.597307,-104.853811,1395
6f8e0992109c93e1077a0a95f4ae7e38,RMYR,,,,,,Douglas County,,,,,
3448927d2f9d0507704c28cf3bc8a30e,The Snuggle is Real Animal Rescue,The Snuggle is Real Animal Rescue,The Snuggle Is Real Animal Rescue (TSIR),,,Denver,ARAPAHOE,CO,,,,
b90cdb58430949aa97c97e60982d248c,Town of Naturita Animal Shelter,,,PL000QKF,"",Naturita,Montrose County,"",81422,38.217901,-108.565332,32
8c22995d82420a487799d2bd208c90b8,Bill Davis / DBA Grand Valley Pit Crew,,,,,,,,,,,
f0fcf84bd328cf29676512d517119e91,Colorado Liaison for Animal Welfare Alliance,,,,,,,,,,,
bcf945ec9686c35f7ac526f4fdc05f3f,Dave and Mary Jackson,,,PL000GCU,11356 Rd. 25.4,,Montezuma County,,81321,,,
24f4bbbdf153c4e2c3c75cfe69f197ff,Loma Cat House inc,Loma Cat House Inc,N/A,PL000ZAW,774 23 Rd,Grand Junction,MESA,CO,81505,,,
2ec346e7bf8de31092c2f2e76f728226,Lost Our Home Pet Rescue of Western Colorado,,,,,,,,,,,
c43b4c76f365bc05886ccf89384c0352,Mattersville Yoder,,,,,,,,,,,
ec592f958a69681bedca4aa25f8826df,"Rocky Mountain Cocker Rescue, Inc.",,,,,,El Paso County,,,,,
ab5c3a80398902a1a1a86bf68e137497,Voices of the Wild Foundation,,,PL0026VG,60169 La Salle Road,Montrose,Montrose County,,81403,38.478034,-107.876806,32
1ab740187f892827dfcb44a6275a9911,Paws And People,Paws And People,Paws And People Rescue,PL000UH3,1101 Harrison St,Greeley,WELD,CO,80206,,,
b5a7dc282c6f862026610362c208f618,Two Girls Four Paws All Breed Rescue,,,,,,,,,,,
bc4dbe7b44f035b1e8b65d64eeda2f66,WALSH DOG POUND,,,,,,,,,,,
a06192cf95feb06b9c45f4331a5228a9,CITY OF YUMA ANIMAL SHELTER,City Of Yuma Animal Shelter,N/A,PL001QW6,"",Yuma,YUMA,CO,80759,32.722313,-114.62088,1073
e5a8d965dd4dfe24e83d7d90c99ec9c7,Colorado Herding Dog Rescue,Colorado Herding Dog Rescue,N/A,,,Denver,DENVER,CO,,,,
f2f40882bd68327859bdbba90d5c222d,"Colorado St. Bernard Rescue, Inc. ",,,,"",Aurora,Arapahoe County,"",80011,39.74187,-104.799113,82
f5270a433f1d9c2dd60e1ee1cd4bd46f,Sloppy Kisses Animal Rescue,Sloppy Kisses Animal Rescue,N/A,,,Bennett,ARAPAHOE,CO,,,,
02ec1f44e929fec015082a95df611468,True-Blue Pet Rescue,,,,"",Aurora,Arapahoe County,"",80013,39.659198,-104.774814,1395
f4d48be21c03f7c2f3abbf49a52d1f8e,Arrowhead Correctional Center,,,PL000U04,"",Canon City,Fremont County,"",81212,38.442184,-105.23489,1448
17eab361f476eb4a48c81ff8fd3fbd2a,Colorado Puppy Rescue of Colorado,,,,,,,,,,,
aa277c4de543cf548c0e3332434c133a,Colorado Wyoming Vizsla Rescue Group Inc.,Colorado Wyoming Vizsla Rescue Group Inc.,N/A,,,Colorado Springs,EL PASO,CO,,,,
5de0253710370ff55cd05c28a0f278be,Cripple Creek Animal Shelter,,,PL00065C,"",Cripple Creek,Teller County,"",80813,38.74569,-105.178358,1071
8fe9f92ebae9e9d62874a007c1c4c66c,NEW HOPE RESCUE INC,,,,"",Colorado Springs,Teller County,"",80923,38.924671,-104.715926,1447
46b0c3430d38be90aef40ba6d3a9d799,Polar Opposite Kennels llc,,,,,,,,,,,
6b5c38d71fca9de294c48db9321af075,RUFF Rescue,,,PL001Q0C,1424 Dayton Street,Aurora,Arapahoe County,,80010,41.75527,-88.309507,1715
a6973db7189921b7581d0dd15d6a62f8,pawsecond chance rescue,PAWSecond Chance Rescue,N/A,,,Log Lane Village,MORGAN,CO,,,,
80ab2573fb53848c6759d721117e6894,Adams County Animal Shelter/ Adoption Center,,,PL001LW1,10705 Fulton St,Brighton,Adams County,,80601,39.986767,-104.812604,82
63da598145448eb0cdf2bbae2247b4d7,City of Aurora Animal Shelter PetSmart,,,,"",Westminster,Adams County,"",80021,39.888912,-105.106509,1008
aaae9d0a3b4c43331c0a06c45157889b,Demi's Animal Rescue Inc,,,,,,Douglas County,,,,,
bbb7083f9051d03de9b437a9c3610033,Izzy's Place Senior Dog Rescue ,,,,,,,,,,,
24717847d5be28a8bb30fecb7ab4b9e9,Routt County Humane Society,,,PL002C65,"",Steamboat Springs,Routt County,"",80477,40.485489,-106.833557,1066
1427a6de539825c77212ca2593ee949a,City of Montrose,City of Montrose,City of Montrose Animal Shelter,,,Montrose,MONTROSE,CO,,,,
7571f08165e5280f389b2e19a8159fe7,Ho-Bo Care Boxer Resuce,,,,,,,,,,,
15f15c2a2275061b06f0efc244c29183,"Second Chance Jack Animal Rescue, Inc",,,,,,,,,,,
80d4dc776e056882d63d990108acfd19,"Soul Dogs, Inc","Soul Dogs, Inc",N/A,,,Westminster,JEFFERSON,CO,,,,
6c3d5a60bf2c9412f6db2e7085f7d2e6,Farfel's Farm and Rescue,,,PL001QBP,"",Boulder,Boulder County,"",80302,40.015831,-105.27927,85
ac981c092bf0cdc654dfc82183279e7d,Natalia Kelly dba Colorado Animal Care Foundation,,,,,,,,,,,
4d65dd9a8d83a6cc0086906f019adf04,Running Dog Rescue,Running Dog Rescue,N/A,,,Fort Collins,LARIMER,CO,,,,
4c1d610daaca22657f06e8cda1f4a7c1,9 LIVES RESCUE,9 Lives Rescue,N/A,PL0009H9,"",Colorado Springs,EL PASO,CO,80922,38.835224,-104.819798,1447
7379e704b90d6672a95d606a33809489,American Bullmastiff Assoc. Rescue Inc,,,,,,,,,,,
cfd1f1a8932f9ada104e3d73931b2a60,"CSZDVM, LLC",,,,,,Garfield County,,,,,
9e77ff0cc69221b7174bb6a5990abd5a,Colorado Animal Welfare League,,,PL00143G,8899 Steeplechase Drive,Elizabeth,Elbert County,,80116,40.661927,-74.211653,2532
cf7ed553991298bb21f08265f7608de6,"Dancing Dog Rescue and Recovery Ranch, Inc.","Dancing Dog Rescue and Recovery Ranch, Inc.",N/A,PL00282V,"",Commerce City,ADAMS,CO,80643,40.108925,-104.521234,1072
256b9210e2f8aac93ab898384a25748f,Dumb Friends League,Dumb Friends League,Humane Colorado - Malone Center,,,Denver,DENVER,CO,,,,
e11e34a93e9532bb10553ce2e111c5dd,Prison Trained K9 Companion Program - Denver,,,,,,,,,,,
438ed0174731ba8291aef2e256cce167,Clearwater Dog Training LLC,,,,,,Denver County,,,,,
daacb98fd5bd800b906f5e74b0b6ea65,Homeward Bound Rescue,,,,,,,,,,,
e213ec9a83fcb20d68606cab0b7ebb8b,"Lightshine Canine, LLC",,,,,,,,,,,
f9004df3660bd6ec0c183ed9c6df4434,Town Of Ordway,Town of Ordway,N/A,,,Ordway,CROWLEY,CO,,,,
664082528d0f6c0427bef000a8274c99,Beasties LLC,Beasties LLC,N/A,,,Pueblo,PUEBLO,CO,,,,
06fb1ccdf6eb68ebfe94a31338a1f952,Cats League&Assistance of the Western Slope,,,,,,,,,,,
29c8f2a114304b9c34af9fea1662f3d9,Fens Haven,,,,,,,,,,,
8df631f616cd9e475b8985936a5a00c7,Harley's Dream,Harley's Dream,N/A,,"",Berthoud,LARIMER,CO,80513,40.298463,-105.106736,1012
aa66cf6c7f17d95e3d71395a1acadc02,"Humane Society of Weld County, INC.",,,,,,Weld County,,,,,
7102e3d4b3db184f07e2cc95049a6e2f,"Rocky Mountian Collie and Sheltie Rescue, Inc.",,,,,,,,,,,
9c5b788f622cdc07e6bc64eb8904b62c,Small Senior Paws Retirement Village,Small Senior Paws Retirement Village,N/A,,,Peyton,EL PASO,CO,,,,
e6b88059674ec5ebccb79717f975b943,Colorado St Bernard Rescue Inc,,,,,,,,,,,
8ef1d9975729ea834af9425d4858a5f0,Erin Nissen dba Durango Animal Connection,,,,,,,,,,,
6357401c44b7cb452782619e5bc83832,SAVING DOBERMANKIND ANIMAL RESCUE,Saving Dobermankind Animal Rescue,Saving Dobermankind,PL002BT2,"",Fountain,EL PASO,CO,80020,39.923985,-105.081661,1444
6b9ff943d21c6ec10ff1824141b7ef0d,W.O.L.F. Sanctuary,,,,,,,,,,,
127ee3f42c58e12e2636bbff11f4770a,Animal Welfare & Protection Society,Animal Welfare & Protection Society,"PAWS,Paws for Life",PL00009U,"",Pueblo,PUEBLO,CO,81003,38.265425,-104.610415,34
f6008fa97784eabc31b996473196cffc,"Colorado Beagle Rescue, Inc.","Colorado Beagle Rescue, Inc.",N/A,,,Westminster,ADAMS,CO,,,,
9986b0807ec180ced8ab9b21b27991a2,English Springer Rescue America Inc,,,,,,,,,,,
d0d2e724e02d824965387efa7d5c7d73,Ft Lupton Veterinary Hospital,,,,"",Ft Lupton,Weld County,"",80621,40.100776,-104.798419,1072
56646a3663eb377895c2b4445ea186d3,Town of Rangely Animal Shelter,,,PL0006Q7,407 1/2 Bronco Rd,,Rio Blanco County,,81648,,,
1ba8a9c2f8ed44bb1a3c0f1b0cc6a93e,Colorado Peke and Pom Rescue,,,PL001TNN,14940 W 72nd Ave,,Jefferson County,,80007,,,
06a48d98d012db109d8aab4286173f96,County of Park Animal Shelter,County of Park Animal Shelter,N/A,PL0008HD,"",Bailey,PARK,CO,80421,39.405602,-105.472801,1062
98dac31723eb666eb605192441a5fdbe,"PAR Group, LLC",,,,"",Aurora,Arapahoe County,"",80014,39.664168,-104.836279,1395
af265017696746bd6f16a2b5bfd3453e,Reptile & Amphibian Center of the Rockies,Reptile & Amphibian Center of the Rockies,N/A,,,Fort Collins,LARIMER,CO,,,,
e59ae9b9a0b82ce97a82590487e7e89a,5280 Reptile Room West,,,,,,,,,,,
7d86a9008559e9cbe1c52479f5785b64,CRIPPLE CREEK ANIMAL SHELTER,,,PL00065C,"",Cripple Creek,Teller County,"",80813,38.74569,-105.178358,1071
4a54a15563862c30f929acba6052c92d,City of Las Animas/County of Bent Animal Shelter,,,,,,,,,,,
3b5757a2e058e5bbaa25b4f84d7a4e01,german shepherd rescue of the rockies,,,PL001B1T,"",Fort Morgan,Morgan County,"",80701,40.253979,-103.801495,1059
838ed0ef8ab334e3310924813f9d6548,New Hope Rescue Inc.,,,,,,El Paso County,,,,,
0e50ba432dfe527203653ce6acf99746,Heart and Soul Dogs LLC,,,,,,,,,,,
ec1e9dbf20ea60bff34210447187c98e,Highwind Exotics and Aquatics LLC dba Parker Exotic Pets,,,,,,,,,,,
04bde11cbfd597450475b8d6c2bbffb7,Town of Dove Creek ,,,PL000D9G,,Dove Creek,Dolores County,,81324,37.763868,-108.906765,1445
1d84ae80ea2a8af0fa77a41a788b4f55,Colorado St. Bernard Rescue,,,,,,Arapahoe County,,,,,
b1088b7387f47fe6c42d14b2ca558cd2,Delta County Humane Society,Delta County Humane Society,N/A,PL000DA9,"",Delta,DELTA,CO,81416,38.741684,-108.070175,1443
523515dae74e17754df28e866ede4d2f,Denver Dachshunds,,,,,,,,,,,
4bc0c0742311acb6c4b4d8daadf76779,Longmont Friends of Feral & Abandoned Cats,Longmont Friends of Feral & Abandoned Cats,N/A,PL002SW2,"",Longmont,WELD,CO,80504,40.165729,-105.101194,1072
dae6c39e60e65beb861f1a5a8aeb1712,MaxFund Inc. (dba MaxFund Animal Adoption Center - Dog Shelter),,,,,,,,,,,
655884869410b299413e9b264db4610b,Taysia Blue Siberian Husky Rescue Nebraska,,,,,,El Paso County,,,,,
d86bc2569492520311005a6c3242a909,Douglas County canine rescue ,,,,"",Castle Rock,Douglas County,"",80104,39.345057,-104.838409,3133
77468abbd101a3e802542ec0d062b826,Dumb Friends League ,,,,,,,,,,,
9b1fcd1cc8ecccfea2590d43dd2fb03d,Flitesong Cage Bird Sanctuary,,,PL000AYA,"",Colorado Springs,El Paso County,"",80919,38.835224,-104.819798,1447
fcb2be0490db44f5af965d5517af0ecb,Front Range Freedom Rescue,Front Range Freedom Rescue,N/A,,,Lakewood,JEFFERSON,CO,,,,
fad07c41a44ba81b814987c9425b7671,Peak View Animal Hospital,,,PL001YHM,1050 CR JJ,Fowler,Otero County,,81039,36.629974,-119.67467,1188
d384f7d37f4accec90ed6afc66fe01f2,Second Chance Humane Society ,,,,,,,,,,,
0e171d243012e05df74d1726f7e63c88,"Golden Retriever Freedom Rescue, Inc.","Golden Retriever Freedom Rescue, Inc.",Golden Retriever Freedom Rescue,PL001011,"",Lakewood,JEFFERSON,CO,co,39.738453,-104.984853,1444
542480f192ad7478452e8a952fbba6c2,Havok's Wolfpack,Havok's Wolfpack,N/A,PL002T1M,,Denver,DENVER,CO,80128,39.612653,-105.016198,1395
9bf79f7786aaec37f3a770cee57e9459,Prison Trained K-9 Companion Program,,,,,,,,,,,
c87dcbe188f245d0bdc7da214ff9c1c9,Animal Rescue of the Rockies,Animal Rescue of the Rockies,N/A,PL000VQJ,"",Fruita,MESA,CO,80424,39.498185,-106.046225,1015
3f7f351199f4b52976d5776c33458079,Durango Animal Connection,,,,,,La Plata County,,,,,
a7db80a3afff36dbaa285326a7816cde,Graceland Animal Rescue,,,PL0027E7,"",Grand Junction,Mesa County,"",81507,39.067379,-108.570816,1015
41ea64d42ae2b0ea7a74fc1a6f304d65,Pals Forever Animal Rescue,,,PL00154A,P.O. Box 15602,,El Paso County,,80935,,,
ce6e8859f35cff1b2fceaf60db4ca39b,Paws For Life Animal Welfare and Protection Society,,,,,,,,,,,
32000cae34307366424c4a37688fbf35,Ruff Around the Edges,,,,,,,,,,,
839fb837a8445c35a3e1364051b5b2b8,Second Chance Humane Humane Society,,,,"",Ridgway,Ouray County,"",81432,38.132005,-107.789959,1061
feda669f0348d86ef224b6906569e2e2,All Paws Matter ,,,,,,Arapahoe County,,,,,
3e30395b1d9f68d69fb1c6949d6b8077,"Cavalier King Charles Spaniel Club Rescue, Inc. ",,,,"",Littleton,Arapahoe County,"",80122,39.58058,-104.956429,1395
765555380c055640fe5bc5d6dffbba29,High Country Basset Hound Rescue & Adoption,,,,,,,,,,,
1f9b8c04f46abba281315a78e6ebf7c6,Miami Animal Rescue Ranch,,,,,,,,,,,
86450641260e4a2f2c2ce3c766871263,Pearlâ€™s Sunrize Sanctuary,,,,,,,,,,,
342b3020b14dd193743d514e48c97665,Rocky Mountain WildHeart,,,,,,,,,,,
0fc01e0a235d9f41108eec9ad8c18a4f,"Canine Candor, Inc.",,,PL001BMN,"",Eaton,Weld County,"",80615,40.531849,-104.673097,1072
267eea1c95f350e251fd8fb18ba9ceba,Little Paws Matter,,,,,,,,,,,
61e953e86a0f671bf0bb9e3dc3a58051,Rocky Mountain French Bulldog Rescue,Rocky Mountain French Bulldog Rescue,N/A,,,Boulder,BOULDER,CO,,,,
0c82e7711b3566cddfb1153c875d7fb6,A Cat Rescue Out in the Sticks,A Cat Rescue Out in the Sticks,N/A,,,Eckley,YUMA,CO,,,,
128049dc44aab4a928ece9a2a958ab57,Airedale Terrier Rescue and Adoption (ATRA),,,,,,,,,,,
86f9edec1dcf37381f28e29f0540f2a7,Cooper's Companions Animal Rescue,,,,,,,,,,,
42b3a0669abd40772ebf211a075a1098,Demi's Animal,,,PL002A7B,,Aurora,Arapahoe County,,80016,41.75527,-88.309507,1715
1e1001ca36043ac2a4e8c7bdb81ec682,"Rocky Mountain Collie and Sheltie Rescue, Inc",,,,,,,,,,,
95a449935dda5d5e30b901a44f3b4988,Friends of Shawnee Animals,,,,,,,,,,,
22d55f2da1a83bac4d88f11f4445db4c,Hope for Animals-Clear Creek Rescue,,,PL002UZM,,Littleton,Jefferson County,,80127,39.612653,-105.016198,1395
2e358646626d49036f44b74449f8627c,Lucky Dog Rescue,,,PL00187R,4401 Mark Dabling Blvd,,El Paso County,,80907,,,
5a51e69449ad2f105784064a232e8774,PAWS ON THE GROUND Colorado ,,,,"",CENTENNIAL,Arapahoe County,"",80112,39.575448,-104.870487,1395
df9b944b801dddcd124828299a76da5e,Town of Ordway,Town of Ordway,N/A,,,Ordway,CROWLEY,CO,,,,
33405ebe267e95709a7f5e11c75d27ad,"Feline Rescue Network, dba, Look What the Cat Brought In",,,,,,,,,,,
00597286eb7f34b039ef9719182e32f3,"Kneady Kitten Rescue, Inc",,,,,,Denver County,,,,,
b9f27b8ec182344f4d9304693b52694d,Chow Down,,,,,,,,,,,
cf2b92d73d1f10e9e3a9caa8c926bcb5,For the Love of Birds,,,,,,,,,,,
94b597a210a45a68f48e2530752fe362,"From Forgotton to Forever Transport, Inc",,,,,,,,,,,
a7b5aee361d158a1c413c5fce25c1976,All 4s Rescue League,,,,,,,,,,,
2be7d0704a12c19da8e8e6ae56d43102,City of Yuma Animal Shelter,City Of Yuma Animal Shelter,N/A,PL001QW6,"",Yuma,YUMA,CO,80759,32.722313,-114.62088,1073
89cb7289306adbe22902a41994f16781,"Denver Samoyed Association, Inc. (Denver Samoyed Rescue)",,,,,,,,,,,
7372769ff8f0beb3db87b175cef80d91,Mile High Dachshunds Rescue Inc.,Mile High Dachshunds Rescue Inc.,N/A,,,Englewood,ARAPAHOE,CO,,,,
17e0554e1b91a8d2c4946d8fd89eee22,Perfect Unions Animal Rescue Foundation,,,PL0018SN,726 Burning Mtn. Ave.,,Garfield County,,81647,,,
90eef6e3ce7994fd8ab50e4fe5431f70,"Pet Association of Estes Park, Inc.",,,,,,,,,,,
98c143b78e35ae6893439fe8ce418095,Placing Paws,,,,,,,,,,,
9a82b7300cc187061998531418113786,Rescued for Life,,,,,,,,,,,
755d8c8c18d9dfef3a2fffd7427cc522,ANNIES ORPHANS,,,,"",DURANGO,La Plata County,"",81303,37.172158,-107.873843,1011
3dc2bc4f85002494ad19445b99954253,"Moms and Mutts Colorado Rescue for Pregnant and Nursing Dogs, LLC.",,,,,,Jefferson County,,,,,
684c7cce8219186918ab10852f41b4c9,Up Pup and Away Inc,Up Pup and Away Inc,N/A,,,Commerce City,ADAMS,CO,,,,
3ca6c16c2e3ff11756b236cb46880e40,Pawsecond chance rescue,PAWSecond Chance Rescue,N/A,,,Log Lane Village,MORGAN,CO,,,,
d89428433cef9fa48495d52813ac6b84,Roice-Hurst Humane Society ,,,PL001DGQ,,Grand Junction,Mesa County,,81501,39.067379,-108.570816,1015
b9ff96109f9d0761067f5b45b57d0584,Colorado Bullies & More ,,,,,,,,,,,
23f0a020cec0d00864065720fcd8900f,Demi's Animal Rescue,Demi's Animal Rescue,N/A,PL002A7B,"",Aurora,ARAPAHOE,CO,80016,39.592658,-104.731172,1395
45aa7d351077aff561f123a2c34e32d2,Forgotten Felines Rescue,Forgotten Felines Rescue,N/A,PL001XYK,"",Aurora,ARAPAHOE,CO,80014,41.75527,-88.309507,1715
0317d4a6aeefef76b132bb15b2a4e9c6,Dumb Friends League - Veterinary Hospital at CSU Spur,,,,,,,,,,,
8e2e57cc442fa8f37c23c514a641580f,La Plta County humane society,,,,,,,,,,,
3430e3ab7eb3b8ece76d7049293592b3,One Dog at a Time Colorado,,,,,,,,,,,
db88d9af9726a661b55805d2e0a3b045,Southern Mutts Rescue,,,,,,,,,,,
c84af6c9df82befef73d7c251f954118,4 Paws 4 Life Rescue,4 Paws 4 Life Rescue,"Star Boarding Kennel, Inc",PL002GUD,"",Sedalia,DOUGLAS,CO,80123,38.704529,-93.236542,3133
f74182359cf52af3c0da32679e43ea46,Brighter Days Dog Rescue,Brighter Days Dog Rescue,N/A,PL002UQ6,"",Superior,BOULDER,CO,80305,40.015831,-105.27927,85
512891c5bbb588a8cd45440b466eea91,Colorado St Bernard Rescue,,,,,,,,,,,
5c0acd3be4d4fee54e31ffb74abe8cf3,Feline Rescue Network dba Look What the Cat Brought in,,,,,,,,,,,
5543f356346679cd807cdd3ef3ad9705,Fureverdog Rescue and Boarding,,,,,,,,,,,
ad7b932a317b496bdb3225ef777a2781,Town of Telluride ,,,PL0000BQ,,Telluride,San Miguel County,,81435,37.937412,-107.811757,1069
4a48770a6b4ede32726c6f0facf8f1d7,Underdog Animal Rescue and Rehab,Underdog Animal Rescue and Rehab,N/A,,,Moab,OUT OF STATE,UT,,,,
0165dd7276983f4db5a2474e83e7a0ff,"X And B Pets, Inc. dba Perfect Pets",,,,,,,,,,,
03b9b97131bf99fc5aee422d2aef6c9e,Almost Home Adoptions for rescued cats,,,PL001ECU,6010 W. 88th Ave,,Jefferson County,,80031,,,
c0124e99e4c8a2c410a1cb204357cc5f,BEAR CREEK ANIMAL HOSPITAL,,,PL0005YW,2430 East Victory Way,Craig,Moffat County,,81625,40.512442,-107.547286,1016
65aa472c25f2742bc5f561ebf1efbf48,Purrendipity,,,,,,,,,,,
e5ebde6203aa5206f0211fbeed69b1c2,dakota ranch dog rescue,,,PL002PVJ,,matheson,Elbert County,,80830,39.1717,-103.974998,88
e3e7a8f8c91ef6b2c5267cda29ec36a7,Animal House Rescue,,,PL000V1V,1104 West Vine Drive,,Larimer County,,80521,,,
bbf83d5c7f134bf3007fcaea85f0a5b0,For The Howl Of It Inc,,,,,,,,,,,
1b8a11b4fe78921f88ce1b55dfc24855,Town of La Veta,,,PL000CMS,113 S. Main Street,,Huerfano County,,81055,,,
d9a16498fbed031280a79d84a80360bb,Fureverdog Rescue,Fureverdog Rescue,Fureverdog Rescue and Boarding,,,Fort Lupton,WELD,CO,,,,
5351a857499fd4981cfcd8c0573c60e2,MaxFund Inc Dog Shelter,,,,,,,,,,,
387f28d15cba7f8e7b111a7c887dd274,No Hound Unhomed Inc,,,,"",Colorado Springs,El Paso County,"",80907,38.87773,-104.821147,1447
ceae437aeacc13c349ed56813bf18666,Town of Meeker Animal control Facility,Town of Meeker Animal Control Facility,N/A,PL0009GB,"",Meeker,RIO BLANCO,CO,81641,35.503209,-96.893033,1065
484ecadbf84bb2f598aa25a592c1e670,Wet Mountain Animal Welfare,,,,,,Custer County,,,,,
045e639e99e969a2a947f3aa2f7b285e,Big Bones Canine Rescue Service Inc.,,,,,,,,,,,
a3e7487be6b472a10763911562780915,"Land of Ahs Kennel, Inc.",,,,,,El Paso County,,,,,
cba1946ca2d983abfa56b149b97c2ef6,Leadville Lake County Animal Shelter,,,,,,,,,,,
17a97d94ce556f4b5eb12b4c95f060ef,Live Love Animal Services Incorporated,,,,,,,,,,,
852330bdc5fc2f72320d554379651ad4,Retriever Rescue of Colorado,Retriever Rescue of Colorado,N/A,,,Evergreen,JEFFERSON,CO,,,,
48d68ba79b56e715b6ec2d4c92bb77b4,Hoffmanns Little Haven,,,,,,,,,,,
5f94434df32ff70aff6211f8092a1334,Taysia Blue Rescue,,,,,,,,,,,
38805ca6078b018cfed296c04dbb958d,The Biscuit Factory,The Biscuit Factory,N/A,,,Colorado Springs,EL PASO,CO,,,,
88993b52301df25d783dd152d6862c28,Wolf Wood,Wolf Wood,N/A,,,Ignacio,LA PLATA,CO,,,,
5964649289a29bd51eddc109d4eb625a,Agents of Chaos TNR,Agents of Chaos TNR,Agents of Chaos TNR,,,Northglenn,ADAMS,CO,,,,
626308cbfda1a6ef54c2cfd97a032701,Logan County Humane Society,Logan County Humane Society,N/A,PL000QAZ,"",Sterling,LOGAN,CO,80751,41.788839,-89.696515,1808
e9a5e655948a897e715d2487b15a5ddf,No Feline Left Behind,,,,,,Denver County,,,,,
8fc70e09b2f064232d7412cbd5f5e24d,REZDAWG RESCUE,,,PL0021JP,"",Littleton,Arapahoe County,"",81428,39.612653,-105.016198,1395
6926273d27b25555f81bf852aaddef35,Colorado Beagle Rescue,,,PL0007YN,"",Westminster,Adams County,"",80031,39.863462,-105.050335,82
cdf0e25a59c89bc699a5caad01fd0811,County of Bent/City of Las Animas Animal Shelter,,,PL000BCB,"",Las Animas,Bent County,"",81054,38.065042,-103.225269,84
f0d6d8c046b9cb01902031dd84823c29,Mutts N Such Rescue,Mutts N Such Rescue,Foster-based Animal Rescue,,,Laporte,LARIMER,CO,,,,
0d68a49d2eb356c4fe6b0685b6d80be5,Southern Colorado Spay & Neuter Coalition,,,,,,,,,,,
63b0324d2bd61ff66a619f3ace205b58,"Willow Run, Ltd.",,,,,,Broomfield County,,,,,
c913c36dcd6c94da4513f9ece6b5b37f,lookwhatthecatbroughtin,,,,,,,,,,,
a333cc72e2b463387906307ad2c919e2,nocokitties,,,,,,,,,,,
76a400e71631b41f8070bd0a6a862a92,Dumb Friends League Buddy Center,,,PL000GQ4,"",Castle Rock,Douglas County,"",80104,39.375367,-104.859911,3133
4babab5ec51d17d59079804fc5c19ae4,Feline rescue Network /dba Lookwhatthecatbroughtin,,,,,,El Paso County,,,,,
a4090631f9cc75609bc9041ae18a93ce,Stay Animal Rescue,Stay Animal Rescue,N/A,,,Lakewood,JEFFERSON,CO,,,,
2702746d13027873714c624fd98c5217,The Animal Rescue Colorado,,,,,,Boulder County,,,,,
af2069aea03ffe762347e433287d85c3,City of Leadville/lake County ,,,,,,Lake County,,,,,
39a5b1e5a366ae733f294616caa324fb,Peak View Animal Hospital ,,,,"",Fowler,Otero County,"",81039,38.004158,-104.109745,34
67b67ac846da52a342c3311582493f8c,Whimpers to Wags Inc,,,,,,,,,,,
30133de344d9e43b9db65ca9287dc0fb,City of Leadville/Lake County ,,,,,,Lake County,,,,,
e6cebde347932eb892bae68e5102573e,Eagle Valley Humane Society,Eagle Valley Humane Society,N/A,PL001VWV,"50 Chambers Ave, Unit B",Eagle,EAGLE,CO,81631,43.69102,-116.354075,1659
c6ff564fce8725563d39bdb0f4cc07c8,Noah's Ark Animal Welfare Assn,,,,,,,,,,,
fb0404b08cff2a8f6f7e8278324d358b,City of Aurora Animal Shelter,City of Aurora Animal Shelter,N/A,PL0000DL,"",Aurora,ADAMS,CO,80011,41.75527,-88.309507,82
fa995005fdd19e0b3d1a290a85543792,Ark-Valley Humane Society - BV,,,,,,,,,,,
9a0f8caaab7d43f28ed2681c77626cc3,Exotic Bird Emporium,,,,,,El Paso County,,,,,
85a2c513ffcf8233a17b07e4164a2e35,PetSmart-Aurora Animal Shelter,,,,,,Jefferson County,,,,,
7a87bebd6a4b290ca744212d7807bc03,Rocky Mountain House Rabbit Rescue,Rocky Mountain House Rabbit Rescue,N/A,,,Erie,WELD,CO,,,,
8e7c65b4e95b2927c155f8b432be3cac,City of Las Animas,City of Las Animas,County of Bent/City of Las Animas Shelter,,,Las Animas,BENT,CO,,,,
7bfd10e62765e2903cebcf5108bb8803,Creature Box LLC,,,,,,,,,,,
4f30f4c34f3c4e32de1aeaa851e18d00,DogsUnbroken,,,,,,,,,,,
b49bffa68122c5e43ed5715e53415b7e,Exotic Bird Ranch,,,,,,,,,,,
99bb0641e3049a10bec157b7f3465e46,"JJs Helping Paws, Inc.",,,,,,,,,,,
a8ba03a534edfc38e294260313fccde6,Once Upon A Dog,,,,,,,,,,,
f8469f19b6d476f4ddab9e24a283192b,Teller County Regional Animal Shelter,Teller County Regional Animal Shelter,TCRAS,PL0007EP,"",Woodland Park,TELLER,CO,80814,45.751099,-112.746399,1071
0631dc69582aff8cb7f3b30731378455,Upper Rio Grande Animal Society,Upper Rio Grande Animal Society,Conour Animal Shelter,PL0015AX,"",Monte Vista,RIO GRANDE,CO,81144,39.186699,-120.831703,35
56c7bc699e2c1ad48c3961c666b9b145,Animal Friends Alliance,Animal Friends Alliance,"Animal Friends Alliance- Everyday Adoption Center, Petsmart",,,Westminster,JEFFERSON,CO,,,,
a74fdef73f56ff5faa67837bec67acb0,Denver Cat Rescue,Denver Cat Rescue,N/A,,,Denver,DENVER,CO,,,,
5a4cbc753e3251fdb7f03bd8125dc2ee,Denver Dumb Friends League - San Luis Valley Animal Center,,,,,,,,,,,
d28d98b9a606222288ecef9b59064275,Eastern Plains Animal Welfare Alliance-EPAWA,,,,,,,,,,,
83b02b9896dedc8c7dc1caf0bd4207e6,Fureverdog Rescue & Boarding,,,,,,,,,,,
ff75587b4ccf7934beeb3bf279c4bf01,Rocky Mountain Lab Rescue,Rocky Mountain Lab Rescue,N/A,PL000YQ6,"",Parker,DOUGLAS,CO,80038,39.923985,-105.081661,86
fa990fc28dace02478d56aabb4b398bc,Cavies and Canines Animal Rescue,Cavies and Canines Animal Rescue,N/A,,,Wellington,LARIMER,CO,,,,
8e0c1fd7b16d4bd661ac0b484351ba60,"DMK Rehoming, Inc",,,,,,,,,,,
2ff7a73533e9bd8b5063ac5f7638af7d,MaxFund Cat Adoption Center,,,PL001FM6,720 W. 10th ave,,Denver County,,80204,,,
e13bc27699e4028c16094af49b9b6099,National Brittany Rescue And Adoption Network,,,,"",Aurora,Arapahoe County,"",80017,39.694963,-104.787056,1395
1e407e842a2ccfb2eb3edc13674c99c2,Painted Paws for Veterans,,,PL002KJM,"",Peyton,El Paso County,"",81223,46.650299,-92.021103,1447
300091c751aef8c842c51d330a149b01,German Shepherd Rescue of the Rockies,,,PL001B1T,"",Fort Morgan,Morgan County,"",80701,40.253979,-103.801495,1059
f3b93163416a07de534b7730e796d8da,Meeker Cat Coalition,,,,,,,,,,,
188733fdf66f310693b39a03aa64d276,Shiba Scout Rescue (d.b.a. Colorado Shiba Inu Rescue),,,PL0010UF,2233 E. Panama Dr.,,Arapahoe County,,80121,,,
7f9206bf2757a02891b7b080ce5168ce,Town Of Rangely Animal Shelter,,,PL0006Q7,407 1/2 Bronco Rd,,Rio Blanco County,,81648,,,
d586d43135c9da7f660092b93c3044a7,AWR Cat Tails Rescue,,,,,,,,,,,
aa5001a90f9e293b0f1532f8a7563ba0,Ark-Valley Humane Society - South,,,,,,,,,,,
646cbce0ee1162b1066520265f84f669,Small Paws Retirement Village,,,PL002J9A,"",Peyton,El Paso County,"",80831,46.650299,-92.021103,1447
d6f778fb99f6903e6b928eb3ddae949c,Circle 2 Ranch - an Animal Sancturay,,,,"",Evergreen,Jefferson County,"",80439,39.647716,-105.362296,1008
2fb53be9ef414b26b5afafa0f8c43d91,Little Rescue On The Prairie,Little Rescue on the Prairie,N/A,,,Log Lane Village,MORGAN,CO,,,,
48b04e8708c569e0e246f83a1181597f,Colorado Animal Rescue,,,,"",Glenwood Springs,Garfield County,"",81601,39.554772,-107.308335,1449
6a2318340d9b62027bd90fa0eba4747b,Dakota Ranch Dog Rescue,,,PL002PVJ,,matheson,Elbert County,,80830,39.1717,-103.974998,88
eb57f5b47a1be792e7cc636100d75a34,"Estes Park Pet Lodge,inc",,,PL000PZS,1260 Manford Ave.,,Larimer County,,80517,,,
8ff91e1321f5a954adafbef837c5de2c,Oh Be Dogful Rescue,,,PL0029RE,336B Buckley Dr,,Gunnison County,,81224,,,
c6a147bf9d9cd84fd8cc1154d59ca838,"Wet Mountain Animal Welfare, LLC",,,,,,,,,,,
71a85f40d8d459461a21e5b453a5fdb6,Agents Of Chaos TNR,Agents of Chaos TNR,Agents of Chaos TNR,,,Northglenn,ADAMS,CO,,,,
8c14f207e06f7f4ee5536601cbdffd55,L.O.L.A.'S Rescue,L.O.L.A.'s Rescue,LOLA's Rescue Center,PL001GAQ,6005 S Taft Way,Aurora,ARAPAHOE,CO,80127,39.612653,-105.016198,1395
173d7cc8cf70af5153b7d2e83b1e4dd9,SECOND CHANCE HUMANE SOCIETY,,,PL001F9W,177 COUNTY RD 10,Ridgway,Ouray County,,81432,41.421059,-78.728673,730
ddb5fe7048c3e4f6352ada670e5278b3,Walsenburg Animal Shelter,,,,"",Walsenburg,Huerfano County,"",81089,37.654968,-104.803148,1006
7bc04e3853b6d3993c17c93096fa299f,Wild Things Exotic Pets,,,,,,,,,,,
848eff1e02950e9436c03bb04151471d,CARBON VALLEY ANIMAL HOSPITAL,,,PL000211,101 W GRANT AVE,,Weld County,,80520,,,
6774a419438576e1c8175d66dc5e08d1,Miami Animal Alliance ,,,,,,,,,,,
2a139acd2d5c490efbdda9d500f0f645,Cortez Animal Shelter,,,,,,,,,,,
f7816c129626e55beaa1dcbc96e2d8bd,Hoffmann's Little Haven,Hoffmann's Little Haven,N/A,,,Sedalia,DOUGLAS,CO,,,,
854851abbeb883d4e7d3432af2517603,Paws and People,Paws And People,Paws And People Rescue,PL000UH3,1101 Harrison St,Greeley,WELD,CO,80206,,,
ff1e975d6eddfad13a4bdfb7af3a244d,Steel City Alley Cats Coalition,,,,,,Pueblo County,,,,,
317d82662bbbd53a2866b85dbc178805,TAGG Rescue Inc,,,,,,El Paso County,,,,,
05985c57435f6c3e1fc323ff30509ec6,Woof and Willow Company,Woof and Willow Company,Woof and Willow Puppy Rescue,,,Mead,WELD,CO,,,,
69c4d3d5dbf221af7178cfb48e9a7418,City of Brush Animal Shelter,City of Brush Animal Shelter,N/A,PL000ADD,"",Brush,MORGAN,CO,80723,40.255356,-103.621751,1059
0bba9a91233b9f4d74b70bde1faa83ad,"GOOD SAMARITAN PET ADOPTION CENTER, INC.",,,,,,Denver County,,,,,
bc46893714e5125dab474959e5a2277f,GRAND RIVERS HUMANE SOCIETY,Grand Rivers Humane Society,N/A,PL000R56,"",Grand Junction,MESA,CO,81501,39.067379,-108.570816,1015
041a3b4df0fd62d0d30bf7467c2e770c,Happy Cats Haven Inc,Happy Cats Haven Inc,N/A,,,Manitou Springs,EL PASO,CO,,,,
a788221ccebe510b7813e4610158474b,Paired Souls Animal Rescue and Rehab,,,,,,,,,,,
b5e0f3f5aab587b1c5f4fac315f1bad8,"Pembroke Welsh Corgi Club of the Rockies Rescue, Inc.",,,,,,,,,,,
b76779714dbd2c3f6c8b0424fce568e7,Valley Humane League,,,PL001Y19,"",Alamosa,Alamosa County,"",81101,37.468191,-105.874293,83
6d5ffbdf47080c1984d7d56dad9ce465,"Big Dogs Huge Paws, Inc",,,PL0010NT,1917 Perry Park Ave,,Douglas County,,80118,,,
d74bbac88a02a3d4562dc03ca0acb87d,Exotic Bird Ranch Inc.,Exotic Bird Ranch Inc.,Exotic Bird Ranch,,,Fort Collins,LARIMER,CO,,,,
0df46e19f0ff4d11f1f9e9bd483d785c,Mesa County Animal Services,,,PL0016Q0,"",Whitewater,Mesa County,"",81527,42.850353,-88.72881,1015
9324e345754359e3effea70597ab877f,Cavy Care Inc.,,,PL000C7K,"",Aurora,Arapahoe County,"",80015,39.622871,-104.772908,1395
d4ce6709431e4fc535727ffd386461e3,"Estes Park Pet Lodge, Inc",,,PL000HM6,"",Estes Park,Larimer County,"",80517,40.376131,-105.523654,1012
4714e005f1cca9e426c8f88899976aa8,Jailbreak Husky Rescue,Jailbreak Husky Rescue,Jailbreak Rescue Rides & Husky Rescue,,,Denver,DENVER,CO,,,,
94062f3ff9f932a6f7230071423734d3,Prickly Paws Hedgehogs ,,,PL0022KH,,Rush,Lincoln County,,80833,41.786087,-76.070983,2606
d15e2648a1eaa37ab290b53d3a40f755,Breeder Release Adoptions Service,,,,"",Boncarbo,Las Animas County,"",81024,37.21673,-104.695798,1013
7f82beeb0536aa92b21afcb52f83681e,Eagle County Animal Shelter,Eagle County Animal Shelter,N/A,,"",Eagle,EAGLE,CO,81631,39.598815,-106.769663,1446
f4eda1cfc04e99e2a40af1189e215720,Indigo Mountain Nature Center,,,,,,,,,,,
b566abb13ad7ab952775caf44e052416,New Hope Cattle Dogs Rescue & Rehoming,,,PL000VLS,"",Parker,Elbert County,"",CO,39.518515,-104.762773,3133
ef9c97edd0f698f924df050a47d54823,"Rocky Mountain Cocker Rescue, Inc",,,,"",Colorado Springs,El Paso County,"",80922,38.891441,-104.701368,1447
d0b811e646bc4b38f11ddb560e4cc808,WolfWood,,,PL000HN4,"",Ignacio,La Plata County,"",81137,38.070301,-122.537498,1011
4637551a8ca269e604d8cba20881b30e,Greenhorn Valley Animal Rescue,,,PL002V0F,,Colorado City,Pueblo County,,81019,32.388445,-100.86463,779
4f4ef68a816b2bb3813f144f9dc51da4,Colorado Shiba Inu Rescue,,,,,,,,,,,
d65c59a8edbac94468b009886cd13862,Overturf Animal Sanctuary,,,,,,,,,,,
f54f3876a9d9bc6622032be96b66e6ea,PawsCo Adoptions,,,PL001UV4,PO Box 6261,,Denver County,,80206,,,
4ddeaacb1d35a31d89dd6dd1ebe9288d,"All Aboard Animal Rescue and Shelter, Inc.","All Aboard Animal Rescue and Shelter, Inc.",N/A,,"",Fort Collins,LARIMER,CO,80526,40.534366,-105.115142,1012
aebf6017274af0ce0092b640f819f7e2,Delta County Humane Society ,,,,,,,,,,,
de9dced4500b8dc9a3a4c5f5de5dbbed,Hoffmanns Little Have,,,,,,,,,,,
b2e1054c265e32afec83c79b4f7417e8,JJS Helping Paws Inc.,,,PL002NFF,,Pueblo West,Pueblo County,,81007,38.322234,-104.739288,34
f1fb2d6cdd5b20668a6de535f8f3bd79,Taysia Blue Siberian Husky Rescue,,,,,,,,,,,
26e3ca0cbd07b6b50904cfe2a74c2a3b,Yoga Animals Rescue Foundation,Yoga Animals Rescue Foundation,N/A,,,Westminster,ADAMS,CO,,,,
97a20228b3a08a8be2180584cf79f15c,Archway Adventures,Archway Adventures,N/A,,,Greeley,WELD,CO,,,,
79b2777383b3bc296026f790f854a4d6,Cats League and Assistance of the Western Slope - CLAWS Adoption,,,,,,,,,,,
48c1dc25dcf4da278e77fc47449ff15c,Hope For Animals-Clear Creek Rescue,,,PL002UZM,,Littleton,Jefferson County,,80127,39.612653,-105.016198,1395
369988040ddd39df389651ceb019cdec,Katmandu Paonia,,,PL0028H0,"",Paonia,Delta County,"",81428,38.866989,-107.597847,1443
ad4911617624627802a8efb0a5152747,Larimer Humane Society,,,PL00007Y,"",Fort Colllins,Larimer County,"",80525,40.588972,-105.082459,1012
27dbed23fad4c9afd330615056acaea0,"Vintage Dog Rescue, Inc","Vintage Dog Rescue, Inc",N/A,,,Littleton,JEFFERSON,CO,,,,
42742d42765b1cb1a5110da712dcbb63,City of Gunnison Animal shelter,,,PL000051,1100 w Virginia,,Gunnison County,,81230,,,
0cd5284c4e1bc8a23e1650d7ae287ece,City of Las Animas / Bent County Shelter,,,,,,,,,,,
80a1d1c1786d2858031de6890656e998,David Jackson dba David & Mary Jackson Animal Sanctuary,,,,,,,,,,,
c8207c434f990a9ef0855e5e7edc1942,Eastern Plains Animal Welfare Alliance - EPAWA,,,,,,,,,,,
ddb37d6a37ad173b6089fe24817b0569,Feline Rescue Network dba lookwhatthecatbroughtin,,,PL002614,,Colorado Springs,El Paso County,,80909,38.835224,-104.819798,1447
cf48fc609e71a99ad0e81c4ffd102587,Little Rescue on the Prairie,Little Rescue on the Prairie,N/A,,,Log Lane Village,MORGAN,CO,,,,
561f70c74b2f8de41284e3df8b7abc39,Rezdawg Rescue,,,PL0021JP,"",Littleton,Arapahoe County,"",81428,39.612653,-105.016198,1395
8c9ab5938658d667cea8f95fd0dbe911,"SPCAInternational, PAWsitive Recovery Program",,,,,,,,,,,
7c873557780f9614cbcda40eb1054d1b,"Safe Place, Inc",,,PL001VC0,1141 Manitou Ave,,El Paso County,,80829,,,
85c4a92b1a392246d360a57dc026270d,Up Pup and Away,,,,,,,,,,,
0bbd9598c8f5495cf4751c859a0a144b,Wolfwood,,,PL000HN4,"",Ignacio,La Plata County,"",81137,38.070301,-122.537498,1011
8d2f3c4b847c9fa6833f2eadbfb5cf0e,"2 Blondes All Breed Rescue, Inc.","2 Blondes All Breed Rescue, Inc.",N/A,,,Lakewood,JEFFERSON,CO,,,,
2da933ca15eaf8fd7f3173f9754839c1,"2nd Chance Vizsla Rescue, Inc.",,,,,,Larimer County,,,,,
33ccc1f218ae7aa1f0a8addbf223cde5,"Colorado Wyoming Vizsla Rescue Group, Inc.",,,PL00131Q,,Fort Collins,Larimer County,,80524-1418,40.588972,-105.082459,1012
b4a7e927fe877e935ee3bbbe04442db3,Mountain High Collie & Sheltie Rescue,,,PL001V1M,1875 South Ammons St.,,Jefferson County,,80232,,,
306e57f1a994dd94cb85025e0b13962c,Summit Dog Rescue,Summit Dog Rescue,N/A,PL002L3E,"",Boulder,BOULDER,CO,80304,40.015831,-105.27927,85
4f8aa2afcd0a0bc577f9161f120fa020,4 Paws Rescue,,,PL000LMT,8677 Saddleman Road,,El Paso County,,80831,,,
9fc254001417263766a8fef507a85b8a,"Ark-Valley Humane Society, Inc, Buena Vista",,,,,,Chaffee County,,,,,
af1aaa0bc909a3135b4b8305f0971cd1,City of Las Animas/Bent County Shelter,,,,,,,,,,,
1d2434a994a22037eb5e33d85ea79810,Golden Retriever Rescue of The Rockies,Golden Retriever Rescue of the Rockies,N/A,PL001G50,"",Arvada,JEFFERSON,CO,80007,39.801122,-105.081451,1008
a08b5bd2ece701e2bc4bd1ff43ead865,Happy Cats Haven,,,PL001EUV,1412 S. 21st st,Colorado Springs,El Paso County,,80904,38.835224,-104.819798,1447
f96405c8882d5c8c6adcc369185f6d96,"International Hearing Dog, Inc",,,,,,,,,,,
e0d82ae687c35759157f9ac89faf2f17,Loma Cat House Inc,Loma Cat House Inc,N/A,PL000ZAW,774 23 Rd,Grand Junction,MESA,CO,81505,,,
7f76eea6a0844db9d37d61405757df8a,No Hound Unhomed LLC,,,,,,,,,,,
63a61866cfbf0a5df5873c2c15de8073,Pembroke Welsh Corgi Club of the Rockies,,,PL000XXV,1 Glenridge Dr.,,Arapahoe County,,80123,,,
90f7535453f32070fefe8fb5139e77a4,Planned Pethood,,,,,,Jefferson County,,,,,
883088d4018863d08ad6c14a264edb32,Stacy Rochelle,,,,,,,,,,,
492ed59485c95aaa263e91a227b17425,Town of Walsh,Town of Walsh,N/A,,,Walsh,BACA,CO,,,,
801caede03c0c9a0f55b26485f964d46,CLAWA Animal Rescue,CLAWA Animal Rescue,N/A,,,Thornton,ADAMS,CO,,,,
1affdd7d4c4025d8a50003570bd57fe4,Compassion Project Rescue,,,,,,,,,,,
12da836399eec49b2414876996d9e597,Farfel's Farm & Rescue,,,PL001QBP,906 Pearl Street,,Boulder County,,80302,,,
92ce54ed12394f4fa52dd6b7eb7f0f66,Farfels Farm & Rescue,,,,,,,,,,,
b40f2a07c85e6c34088645f5d62dba2d,Twice Purrfect,,,,,,,,,,,
32bb66bc3a6c97cd6f3bb4d70a830a40,Avalon Aviary Bird Store,,,,,,,,,,,
d52722903371c9b653d99e45f0a3e030,Big Dogs Huge Paws,,,PL0010NT,,Larkspur,Douglas County,,80118,37.934175,-122.535713,1167
d6e0db1c60e40131cf08dcc2c598364e,Cats League and Assistance of the Western Slope Adoption Center,,,,,,,,,,,
20e01d63f47d1af4bd56787d9734eaad,Colorado Puppy Rescue,Colorado Puppy Rescue,Colorado Puppy Rescue,PL000RZJ,"",Parker,DOUGLAS,CO,80015,39.622871,-104.772908,1395
7346d084ebe9b124ffedc51cbcbe4b25,Peaceful Animal Adoption Shelter dba PAAS,,,,,,,,,,,
85f67255b9134b7f64d70dbf1e7b2802,City of Walsenburg,City of Walsenburg,N/A,,,Walsenburg,HUERFANO,CO,,,,
8e58d21fb35eccf2ec2b93fbdb75c0ce,Clear Water Reptiles LLC DBA: Scales N Tails Northglenn,,,,,,,,,,,
5bb582ec07b66d3c651072c681c646d2,Colorado Bullies & More,Colorado Bullies & More,N/A,,,Rye,PUEBLO,CO,,,,
53b72ebbeefb6fec5eaa9650663ec88b,LOLAS Rescue,,,,"",Littleton,Jefferson County,"",80127,39.572458,-105.141992,1008
6867259c53f89be61822c90c17346c8a,La Junta Animal Shelter,,,PL001QM4,,La Junta,Otero County,,81050,37.977093,-103.544031,1060
f83a2cfbedeba8c6ceffe36eb200594d,Northern Colorado Herpetological Society,Northern Colorado Herpetological Society,Reptile and Amphibian Center of the Rockies,,,Laporte,LARIMER,CO,,,,
8739ab0a64da10ac2f256a87ae86cb2b,Rocky Mountain Dachshund Rescue,Rocky Mountain Dachshund Rescue,N/A,,,Denver,DENVER,CO,,,,
684c78ecfa99467fba172941a5d77400,X and B Pets INC.,,,,"",Centennial,Arapahoe County,"",80122,39.58058,-104.956429,1395
41bdcc5c5333e4d2a8fd1f8e5a122856,iResQ,,,,,,,,,,,
8fe14b9206831f5583f8f9af9703f76e,City Of Cripple Creek Animal Shelter,,,,,,Teller County,,,,,
b8e5d696febab987cfae007946bfeeb9,Colorado Kitty Coalition,Colorado Kitty Coalition,N/A,,"",Loveland,LARIMER,CO,80538,40.449559,-105.110179,1012
73feace10f07986d3c868d683f993555,Front Range German Shepherd Rescue,,,PL001AJY,"",Denver,Denver County,"",80223,39.738453,-104.984853,1444
2733173e159bd1a46e2788f7efaa144f,Life is Better Rescue,Life is Better Rescue,N/A,PL0019X8,"",Denver,DENVER,CO,80235,39.738453,-104.984853,1444
1f90fd512f604b84db34b6e4104a865e,Paws N Hooves,Paws N Hooves,N/A,,,Monument,EL PASO,CO,,,,
577302d4c9c16f990afb5f43a3d0b61b,Pembroke Welsh Corgi Club of the Rockies Rescue,,,,"",Littleton,Arapahoe County,"",80123,39.614202,-105.070564,1008
eb7e3a2fba5cfb8ed8e887b73680dde9,running dog ranch animal rescue,,,PL0017CK,,Dolores,Montezuma County,,81323,37.47333,-108.503062,1058
50a888ffe3bc5fe9251541f3f83dabcf,Canine Partners of the Rockies,Canine Partners of the Rockies,N/A,,,Aurora,ARAPAHOE,CO,,,,
840536a01a26b8ca3e54e0bab6b5107c,"Colorado Springs All Breed Rescue, INC",,,PL0009J7,,Colorado Springs,El Paso County,,80907,38.835224,-104.819798,1447
512707c50e36d84d38d76b97389e619c,Duck Team 6,,,,,,,,,,,
a5b9afc0c3ad152d39cca222ebba9dd5,House of Exotics,,,,,,,,,,,
19086242a909872c827c3513c76e23b9,iResQ RR,iResQ RR,N/A,PL00274T,"",Golden,JEFFERSON,CO,80439,39.633517,-105.328888,1008
5ed7ae125d60ffaee62742fe47b85357,Mile Hgh German Shorthaired Pointer Rescue,,,PL002HPK,,Centennial,Arapahoe County,,80121,39.597307,-104.853811,1395
074c33edb85ad9dcc621d0f54566bcac,Above and Beyond English Setter Rescue,Above and Beyond English Setter Rescue,N/A,,,Parker,DOUGLAS,CO,,,,
058663080c61d22e10a1c5765baaa452,From Forgotten to Forever Transport,From Forgotten to Forever Transport,N/A,,,Walsenburg,HUERFANO,CO,,,,
c9b2f5ef8d76cddf7fe47afc1db214d0,Humane Society of the Pikes Peak Region,Humane Society of the Pikes Peak Region,N/A,PL000035,"",Pueblo,PUEBLO,CO,80905,38.835224,-104.819798,1447
7740f9335e5e72ddb6af556ca1a64e58,Platteville Police Department,,,PL000S9T,400 Grand Avenue,,Weld County,,80651,,,
c40ee11e9b42cb226e25e57a85db44e4,Red Fern Animal Rescue,Red Fern Animal Rescue,N/A,,,Denver,DENVER,CO,,,,
3cc429013a4093b77690b717e6e37763,Rocky Mountain Feline Rescue,,,PL00028N,2390 S Delaware St,,Denver County,,80223,,,
4039b12e7efdd74c2bc1e69583a3642c,Fen's Haven,Fen's Haven,Fen's Haven,,,Peyton,EL PASO,CO,,,,
ed375c6d7ca195b974cc3abd7bf17375,HemoSolutions,,,,,,,,,,,
159542e3ba0b971d5148f53d922572f7,Hutchinson Animal Shelter,,,,,,,,,,,
2511087e8e765937e43562f2dceeaa7d,Red Hill Animal Health Center ,,,,"",Carbondale,Garfield County,"",81623,39.287018,-107.174534,1063
6a2a91cd108d5e5d4857acbd54157017,"Rocky Mountain Great Dane Rescue, Inc",,,PL000HBS,"",Lakewood,Jefferson County,"",80228,39.710997,-105.088872,1008
b79967154d8de79f6a8771a7dade624f,Colorado Wyoming Vizsla Rescue Inc,,,,,,,,,,,
6c3431698a70c63c96cc48f1feb5014c,Lamar Animal Shelter,,,,,,Prowers County,,,,,
9d6afe7fae137a65e9a0f812309fb0af,Peanut's Place Bully Rescue,,,PL000XFU,"",Yoder,El Paso County,"",80864,45.129877,-122.681388,1447
3e2321e3c0a6c67ca2246c5578ddef5f,Barnwater Cats Rescue Organization,,,,"",Denver,Denver County,"",80210,39.679179,-104.963089,1444
9713a4fb5434b81be29ebae9e865614e,City of Rocky Ford Animal Shelter,,,PL0000FG,203 South 9th Street,,Otero County,,81067,,,
3cc9956261ca00cedd7f0475e4c44081,Mile High Weimaraner Rescue,Mile High Weimaraner Rescue,N/A,PL000X1M,"",Commerce City,ADAMS,CO,80022,39.812904,-104.912874,82
89e36b075566c5aaae245ec050cd2d42,Operation Secondhand Paws,,,,,,,,,,,
1b771e1785e0e09f34873d4be1793ddd,Snow Capped Shepherd Rescue,Snow Capped Shepherd Rescue,N/A,PL002RHY,"",Centennial,ARAPAHOE,CO,80122,39.597307,-104.853811,1395
cefcbd5662d5198102e0d118e6b7a74c,Special Needs Animal Rescue League- SNA,,,,,,,,,,,
5509219ba972901aceda52ba0f4ab00a,The Forgotten Bull Terriers,,,,,,,,,,,
6775d810f9a8caed130e23293fb8c682,Thunder Puppy K9 Rehabilitation and Rehoming,,,,,,,,,,,
e50cd666d206f45c53b00c171340efd8,Town of Springfield,Town of Springfield,N/A,PL000D4M,"",Springfield,BACA,CO,CO,39.79936,-89.643624,1397
d6a1890a1ce77a08cbf192d969326405,Eastern Plains Animal Welfare Alliance-EPAWA (New Location),,,,,,,,,,,
013276fb39014446409bc1799e47f48f,National Mill Dog Rescue,National Mill Dog Rescue,N/A,PL0011UB,"",Peyton,EL PASO,CO,80831,46.650299,-92.021103,1447
62cff2c3e6da1d05bdededfd4eab756f,The Feline Fix,The Feline Fix,Divine Feline,,,Commerce City,ADAMS,CO,,,,
31d5f384b00b0e3f0e255cc5c3277592,Victory Service Dogs Inc.,,,,,,,,,,,
9ef0f9e274018c71819ab488149450c2,Almost Home Adoptions,Almost Home Adoptions,N/A,PL001ECU,"",Westminster,JEFFERSON,CO,80031,39.863462,-105.050335,82
6f14580a1824e37239c9503a3cffd935,Big Bones Canine Rescue,Big Bones Canine Rescue,N/A,,,Wellington,WELD,CO,,,,
d6b465c80abffa7f201f8db2c051ae6a,Clearwater Dog Training & Nikenos Second Chances,,,PL000AAK,5555 W. Evans Ave.,,Denver County,,80227,,,
f57232251e6bb5abe970e1701b3fd455,Paws on the Ground Colorado ,,,,"",CENTENNIAL,Arapahoe County,"",80112,39.575448,-104.870487,1395
9131746d7a693b7550b4f95dcd626fbb,Purrfect Pause Cat Cafe,,,,,,,,,,,
fbba4f4d79dcde0bf272a37f97751467,pueblo animal services,,,PL000WE0,"",Pueblo,Pueblo County,"",81008,38.265425,-104.610415,34
38c6a12d53e16435dec5abf81d6a3b7b,Big Sky CARES,,,,,,,,,,,
1ca001c2e1e351763496db98730e121c,Cats League and Assistance of the Western Slope,Cats League and Assistance of the Western Slope,CLAWS,,"",Grand Junction,MESA,CO,81505,39.127619,-108.611092,1015
29d449104d9b6b40a5adc2de7e4273c8,Colorado Animal Rescue ,,,PL000CUC,,Glenwood Springs,Garfield County,,81601,39.544078,-107.324822,1449
fd6ef2595897d952b5876967d82de251,Colorado Sheltie Rescue,,,PL002JNH,"",Lakewood,Jefferson County,"",80113,39.710997,-105.088872,1008
6d5eb2441c6ae734fc78d184de7e1da9,"Good Samaritan Pet Adoption Center, Inc",,,PL002NK7,,Denver,Denver County,,80211,39.738453,-104.984853,1444
56e73c7ed6304b3429f1b18f679e05f8,KARRA,,,,,,,,,,,
0b62c4ede6af36c853b78be03032285a,PET ASSOCIATION OF ESTES PARK INC,Pet Association of Estes Park Inc,"Estes Park Pet Lodge, Inc",PL000HM6,"",Estes Park,LARIMER,CO,80517,40.36816,-105.542948,1012
f89311df6b31ae627e0d5c6cd632a9c0,San Nicola Dog Rescue Foundation,San Nicola Dog Rescue Foundation,N/A,,,Genoa,LINCOLN,CO,,,,
2c36abf4a6ae9d5b73f11722bf0816af,Scales N' Tails (ST East),,,,,,,,,,,
750aec3caf9f56e91ca2a95c2285b054,Black Forest Animal Sanctaury,,,,"",Black Forest,El Paso County,"",80908,39.035907,-104.698606,1447
1936ae754554442d7d0b6e9c0b443378,Paws On The Ground Colorado,Paws on the Ground Colorado,N/A,PL002ML9,,Highlands Ranch,DOUGLAS,CO,80112,39.597307,-104.853811,1395
c57fd193bf7b54442f12589955751939,Southern Colorado Spay and Neuter Association,,,PL000YCW,1700 S Prairie Ave,Pueblo,Pueblo County,,81005,38.265425,-104.610415,34
34f93b84c74774063c7b2c9481448d94,Wild Willow Sanctuary,Wild Willow Sanctuary,N/A,,,Kersey,WELD,CO,,,,
49f0b00080424f1b87b7a977312081fa,City Of Cortez Animal Shelter,City of Cortez Animal Shelter,N/A,PL000M2U,"",CORTEZ,MONTEZUMA,CO,81321,37.34862,-108.583778,1058
d21f98c032614f395ff24cd028e3fafc,For The Howl Of It Rescue,,,,,,,,,,,
6085bfcbf8e55bb7645dcd778a940d1a,Fort Collins Cat Rescue & Spay/Neuter Clinic,,,PL000Y1H,"",Fort Collins,Larimer County,"",80524,40.588972,-105.082459,1012
c1314e2d77eb7b1acf240cd21129a0cf,ST East & ST North,,,,,,,,,,,
e0446112f556a01b5122b92db3807a9e,Westie Rescue Network,,,,,,,,,,,
a1110459e6bac8d947bae7ea9c610815,HOOF AND PAW (WEST END ANIMAL ASSIST,,,PL0013MH,606 Cascade Circle,,Montrose County,,81422,,,
b1690ebd7144c646c048c28e345c5627,"Pei People Shar Pei Rescue, Inc",,,,,,,,,,,
f1a107c339dbbceca993c5b975e5dba4,Pet Association of Estes Park Inc,Pet Association of Estes Park Inc,"Estes Park Pet Lodge, Inc",PL000HM6,"",Estes Park,LARIMER,CO,80517,40.36816,-105.542948,1012
473e8547612dca76d0fa98c7e8f7616c,Sunshine Canyon Dog Rescue ,,,,,,Denver County,,,,,
87e2b8b0fc4ff93600984290e6335738,Humane Society of St Thomas,,,,,,,,,,,
55728bd2ba5d860b4b449a3234f2b937,Miami Animal Alliance Inc,,,,,,Weld County,,,,,
3c7be8e4bf5e0f17aa44f1cf9b55aea9,Northern Colorado Herpetological Society (Fort Collins),,,,,,,,,,,
bba124a0aac25d36105d48e960f674aa,Snow Buddy Dog Sled Tours,,,,,,,,,,,
62ec29d9230fb49280ec03c95b2c4398,Colorado Greyhound Adoption,Colorado Greyhound Adoption,N/A,PL000A74,"",Johnstown,WELD,CO,80128,39.612653,-105.016198,1008
0cd10ea84c2a8f96ec62a62e642b1639,Colorado puppy rescue ,,,PL000RZJ,,Aurora,Arapahoe County,,80015,41.75527,-88.309507,1715
cd66da4b086de333e6110644275576ec,Kristen Schnobrich dba Rocky Mtn German Shorthaired Pointer Rescue,,,,,,,,,,,
ce88ab6d2cb1eb8e0d5b8671e236dd4e,Mile High Dachshunds Rescue,,,PL002ECL,5290 S Geneva Way,Englewood,Arapahoe County,,80111,39.649436,-104.98891,1395
7bb9ae71053c80ae8ab431aaf6cd6ebe,POS Owner Dog Rescue,POS Owner Dog Rescue,POSO Dog Rescue,,,Boulder,BOULDER,CO,,,,
d15538c5c7e5e5de1448758a0fd5434b,Colorado Pug Rescue,,,PL000AG7,"",Strasburg,Adams County,"",80136,38.988485,-78.358835,1005
4cac33401bcb5b988eb56678e94eaa21,Echo Acres,,,PL002V47,"",Calhan,El Paso County,"",80808,39.035892,-104.304084,1447
4936e199b65b5e1244f799268862880a,Karl's Canine Krew,Karl's Canine Krew,N/A,,,Colorado Springs,EL PASO,CO,,,,
b3a86f81b74937f484cad7abb0a66861,MidAmerica Boston Terrier Rescue,MidAmerica Boston Terrier Rescue,N/A,PL002TLJ,"",Littleton,ARAPAHOE,CO,80125,39.612653,-105.016198,3133
bdaaedca0f8255c86cf3beb82cbdc9ef,Surface Creek Shelter,,,PL001A7K,265 SE High Country Avenue,Cedaredge,Delta County,,81413,38.900738,-107.923767,1443
1f7d3c4d90c304480da7f2e1b3e84a93,Thunder Puppy K9 Rehabilitation and Rehoming Inc,,,,,,,,,,,
1145afb179ac429d998e772c5865ef98,Under the sun,,,,,,,,,,,
99de84b00842269c456bed73e5fa3968,W.O.L.F.,,,,,,Larimer County,,,,,
29919e5e3a4a43f37888bda5489945da,"2nd Chance Vizsla Rescue, Inc",,,,,,,,,,,
5d7ed9d78956a05ecc3d6f82def998a4,Animal House Pets & Grooming,,,PL000V1V,,Fort Collin,Larimer County,,80521,40.588972,-105.082459,1012
3e61227b21d4244a08859649042ef1d5,Fort Morgan Humane Society,Fort Morgan Humane Society,N/A,PL00122S,"",Fort Morgan,MORGAN,CO,80701,40.253979,-103.801495,1059
f01044ef4a7065d79d09bfa0f7456ec8,Lamar Animal Sanctuary Team,,,PL000UCD,6950 US Hwy 50,,Prowers County,,81052,,,
98788cd5236e5fdc063efdf11c029cd6,Life is Better Rescue (Cat Shelter),,,,,,,,,,,
d65660285c374c6838dbf5c9d63c395e,Mile High Labrador Retriever Mission,Mile High Labrador Retriever Mission,"MHLRM,Mile High Lab Mission,Mile High Lab Rescue",PL00184X,"",Broomfield,BROOMFIELD,CO,80038,39.923985,-105.081661,86
2f0f0f120695d0ce2c430a4cdd3d823a,Southern Colorado Animal Rescue DBA Black Forest Animal Sanctuary,,,PL001QJ9,16750 Thompson Road,,El Paso County,,80908,,,
6ce42d11e5f02bc2e167f7ac76772070,Mountian High collie & sheltie Rescue,,,PL001V1M,,Lakewood,Jefferson County,,80232,39.710997,-105.088872,1008
e7db6bc80be110251ad63836c19a18d5,Running Dog Ranch,,,PL0017CK,"",Dolores,Montezuma County,"",81323,37.516492,-108.403135,1058
d9bc272a7aa22fc77268edbc62932d58,All Points West German Shorthaired Pointer (GSP) Rescue,,,,,,,,,,,
64e649c469c858eea51f9122ea221358,Bear Creek Animal Hospital,,,PL0005YW,2430 East Victory Way,Craig,Moffat County,,81625,40.512442,-107.547286,1016
030ce29eb0880059dc1e34f1bf4ebb4e,Fort Lupton Veterinary Hospital,,,PL000766,,Fort Lupton,Weld County,,80621,40.08025,-104.810512,1072
fd58b55615d822f17100671ebfc6061f,Grand Valley Pit Crew,,,PL002JQD,"",Loma,Mesa County,"",81524,39.196709,-108.812935,1015
1a13db817a13353709cc5ceffb5ffa4b,High Country Basset Hound Rescue,High Country Basset Hound Rescue,N/A,PL0006R5,"",Elizabeth,ELBERT,CO,80016,39.69879,-104.838565,1395
0ab1faf2de3512826c83cf32d273005f,Polaris Alaskan Malamute Rescue,Polaris Alaskan Malamute Rescue,N/A,,"",Golden,JEFFERSON,CO,80403,39.829062,-105.298581,1008
d929a4e2288bc80bfefa560fc8ed0530,Puppy Kisses Ranch,,,,,,,,,,,
d2e0e9ad9768a9eeb8bcefb5f26ed9c2,Cats League of the Western Slope,,,,,,,,,,,
629909e071758b37058f07366dfa6cf5,City of Cripple Creek Animal Shelter,,,,,,Teller County,,,,,
2a49c22c73897985fa8c784c9d654197,Peanutâ€™s Place Bully Rescue,,,,,,,,,,,
e246cc9ced816207f16d0bc5334e3a73,"Second Chance Humane Society, Inc.",,,,,,Ouray County,,,,,
4aba412e3aea89453deb3917644ccab2,Town Of Cheyenne Wells,Town of Cheyenne Wells,N/A,PL000D3P,"",Cheyenne Wells,CHEYENNE,CO,80810,38.82019,-102.349564,1399
25cb3234cac37754bb97115ea19d63e8,Cavalier King Charles Spaniel Club Rescue,,,,,,,,,,,
8a55fbba4daea0750f65333d80df4fe4,City of Montrose Animal Services,,,,,,,,,,,
77d71676b1081939cd8b0aca1e2c455d,Clearwater Dog Training/ Nikenos Second Chances,,,,,,,,,,,
ee081137c4926be6598379548a55cec6,Oh Be Dogful,,,,,,,,,,,
8a0a80c72347d8e311ffa2dc1ee597a5,Rocky Mountain Society of Aviculture,,,PL002R3R,"",Denver,Denver County,"",80216,39.738453,-104.984853,1444
1d0fa8e819becb722c024e5e0c34e822,Snow Buddy,,,,,,,,,,,
fc4a7cc0715484ea9de5f032b588a57f,Southern Colorado Spay-Neuter Association,,,,"",Pueblo,Pueblo County,"",81005,38.221559,-104.745784,34
f445ce63b22085f33d82e3ece674e562,The Gabriel Foundation,The Gabriel Foundation,N/A,PL000RTW,"",Elizabeth,ELBERT,CO,80204,40.661927,-74.211653,88
c1ed959eeac603c7c9903d7a434b4828,2nd Chance Vizsla Rescue Inc,,,,,,,,,,,
4cca7bb937072e22188e0dfbd27e27df,COLORADO WYOMING VIZSLA RESCUE GROUP INC,,,,"",Arvada,Jefferson County,"",80007,39.839939,-105.186131,1008
54925926fed7df27a4eb6edfaacf7ae7,Josephine Tullio dba The Tullios,,,,,,,,,,,
3ac588b2e82d7d72d30aef4eb0b033b8,Life is Better Rescue Cat Shelter,,,,,,,,,,,
d7a331da5a78f953efd3bc168a951519,Airedale Terrier Rescue and Adoption ,,,,,,Adams County,,,,,
e6f55e1ae84bcabf4dc766ade80a64d6,Freedom Service Dogs,,,PL002RNN,,Englewood,Arapahoe County,,80112,39.649436,-104.98891,1395
f11e366632c40e6ce94ac6b3f066e6e9,Pet World Inc.,Pet World Inc.,Pet World,,,Lakewood,JEFFERSON,CO,,,,
32be97196575eb700391f50997f9b7fa,City of La Junta,City of La Junta,City of La Junta Animal Shelter,,,La Junta,OTERO,CO,,,,
95709dcccb629dba40cdd24dee6108b1,JJ's Helping Paws,,,,,,,,,,,
b9f387affa9e8f6929a06da3900672c6,Pepper's Senior Dog Sacntuary,,,,,,,,,,,
9359199f2dae2e71335b0c6e457a8e47,Planned Pethood International,,,,,,,,,,,
3a5c6975ca49db23fe1c3d765e29f3cc,Rocky Mountain Siamese Rescue,,,PL000Q3E,"",Greeley,Weld County,"",80634,40.422554,-104.694445,1072
43e3c2eac374efda733588ce3fcfa389,Rocky Mountian House Rabbit Rescue,,,,,,,,,,,
154c46316ac8e2271fd0bb2f2cf92613,Colorado Corgis and Friends,Colorado Corgis and Friends,N/A,,,Henderson,ADAMS,CO,,,,
8ad805c6dab3a3e466d60f53b1ca891f,Happy Hounds Rescue Inc.,Happy Hounds Rescue Inc.,N/A,,,Empire,CLEAR CREEK,CO,,,,
ff8eebcabdb9feb047e3b34e654c0c85,Hoof & Paw,,,,,,,,,,,
07ea058311c21078f68af7eb31252dad,Mile high Dachshunds Rescue,,,PL002ECL,5290 S Geneva Way,Englewood,Arapahoe County,,80111,39.649436,-104.98891,1395
ab5f0fb90070a52007860222079d1813,Paws N Hooves & Black Forest Animal Sanctuary BFAS,,,,,,,,,,,
081a4cd8077b98e9ecd8dfdbdb81d842,Platte Valley Veterinary,,,,,,,,,,,
0f88e21f4b6322c4d0e562a7344f0feb,Bichon Frise Rescue Ranch,,,PL000BZ4,1979 Carlson Rd.,,Elbert County,,80138,,,
3dad6fa07b0906d990b3ae410adc0c06,Clearwater Dog Training & Nikeno's Second Chances,,,,"",Denver,Denver County,"",80227,39.665737,-105.092647,1008
adb84a437a7b6caf4517ffc8f96be6b8,JJs Helping Paws Inc,JJs Helping Paws Inc,Molly's Place Home of JJs Helping Paws,,,Canon City,FREMONT,CO,,,,
f29a5fc0f775d03fb26d1165f6191182,My Fairy Dawg Mother Rescue Inc ,,,PL001PP3,,Aurora,Arapahoe County,,80011,41.75527,-88.309507,1715
5b5682d3d3b682f94db8b121bd289449,NOCO Humane - Larimer County,,,,,,,,,,,
210a54980e19838561e11221994b73b8,"THE ANIMAL DEBT PROJECT, INC.",,,,,,Weld County,,,,,
684a5c165171a03f75a09beed2868874,Angels with Paws,Angels with Paws,Angles with Paws Cat Rescue & Adoption,PL000KVF,"",Lakewood,JEFFERSON,CO,80215,39.710997,-105.088872,1008
21fff61ba9e9fa602d76da068a3013c0,City of Lafayette Animal Shelter,,,PL000H70,1700 Distel Drive,,Boulder County,,80026,,,
15c13042194c16688dae95d65d08da4e,David Jackson,,,,,,,,,,,
7e1d2ca6b7b76e8df198c74ad0b9fefc,Eastern Plains Animal Welfare Alliance,Eastern Plains Animal Welfare Alliance,EPAWA,PL002P32,"",Burlington,KIT CARSON,CO,80807,44.475949,-73.212481,1009
5d458d270dd7ecd81684cb7b03734521,HO-BO Care Boxer Rescue,,,PL00082A,"",Denver,Denver County,"",80209,39.738453,-104.984853,1444
40466e5ea644c3ea7e3e627093218f9c,Town of Cheyenne wells,Town of Cheyenne Wells,N/A,PL000D3P,"",Cheyenne Wells,CHEYENNE,CO,80810,38.82019,-102.349564,1399
30f945ded39b9df27dfcb606a65b1c79,Angels With Paws,Angels with Paws,Angles with Paws Cat Rescue & Adoption,PL000KVF,"",Lakewood,JEFFERSON,CO,80215,39.710997,-105.088872,1008
f7aa78e7c84d9c88202b9570477b510e,"DMK Rehoming, Inc.","DMK Rehoming, Inc.",DMK Rehoming,,,Littleton,JEFFERSON,CO,,,,
76801a49bad779a62fd87d06d2be1d56,PEARL'S SUNRIZE SANCTUARY,,,,"",Salida,Chaffee County,"",81201,38.549874,-106.075804,1398
ac74098ea9392c794344c746457015c7,Steven J Bentley Homeward Bound Facility,,,,,,,,,,,
28dbbc5d89b357a05730b59b4da88823,Paws on the Ground Colorado,Paws on the Ground Colorado,N/A,PL002ML9,,Highlands Ranch,DOUGLAS,CO,80112,39.597307,-104.853811,1395
47c93e405eabcb7a10833a591af169e6,Divide Creek Animal Hospital,,,PL0011JX,"",Silt,Garfield County,"",81652,34.999699,-117.748596,1449
163e6cfda9a81851e6e6f3c5adb906c2,The HOPS Project,,,,,,,,,,,
8b607b3c5407ccf22de2481e6699742a,Wild Blue Cats!,Wild Blue Cats!,Wild Blue Animal Rescue and Sanctuary,,,Colorado Springs,EL PASO,CO,,,,
42145ba491c713b4aaebdb2ea376640b,Animal Rescue of the Rockies Cat Casita,,,,"",Fairplay,Park County,"",80440,39.16649,-105.973292,1062
0b4a191b24db68995d5fe2164b650cda,City of Rocky Ford,City of Rocky Ford,City of Rocky Ford Animal Shleter,,,Rocky Ford,OTERO,CO,,,,
5dc481cf2bb7ab2c117a483e8bceb237,MidAmerica boston Terrier rescue,MidAmerica Boston Terrier Rescue,N/A,PL002TLJ,"",Littleton,ARAPAHOE,CO,80125,39.612653,-105.016198,3133
c92825027aa98817be7dbcb74ad37005,TCRAS: Teller County Regional Animal Shelter,,,,,,,,,,,
9230338009bc4489ec96827475882c40,cats alive,,,PL0024Q0,"",alamosa,Alamosa County,"",81101,37.468191,-105.874293,83
2050bd76dc8c8fe6170c7d8cd3c071a0,Above and Beyond English Setter Rescie,,,,,,,,,,,
bbeae60efe408e5fe91f634a7bd8cd22,Dumb Friends League (Denver),,,,,,,,,,,
d5ec6d471ab0281c107c32b8cd1a60b1,From forgotten to forever rescue,,,,,,,,,,,
b6c7ee04ff2b24de9f32449524c113bd,Intermountain Humane Society,,,PL000694,"",Pine,Park County,"",80470,39.41,-105.323303,1008
1e91de9435596df401ce85a7bb11c080,Peanut's Place Bully Rescue Inc,,,,,,El Paso County,,,,,
cc45ba056ff999ce844a9d3e96bc245f,Lifeline Pet Rescue,,,PL000X3H,"",Brighton,Adams County,"",80602,39.986767,-104.812604,82
f686442b28bd4d61cd396bba69651748,Upper Rio Grande Animal Society (Conour),,,,,,,,,,,
dcab32c2780fc8b689ad343564e7a800,"X and B Pets, Inc.","X and B Pets, Inc.",Perfect Pets,,,Centennial,ARAPAHOE,CO,,,,
73484785edd53b37f1eeeeaeb0c50b0d,Delta County CAWS,,,PL001H6U,640 W. 4th Street,,Delta County,,81416,,,
a53d35399978d17c3de8bcd086a4136b,Gunnison Valley Animal Welfare League,,,PL00239Z,"",Gunnison,Gunnison County,"",81230,38.545502,-106.926898,1005
f995eb178d00ffb8125f4ce57132f2be,Humane Society of the South Platte Valley,,,,,,,,,,,
671c857cd0f4a32f46cd29a3f3a255a5,"Maxfund, Inc",,,,,,Denver County,,,,,
a5269a0510251d0d5854b1a4aa4c11dc,The Misfits Dog Rescue ,,,,,,,,,,,
eddad47147b5039fb9c84955a7976765,cats alive slv,cats alive slv,N/A,,,Del Norte,RIO GRANDE,CO,,,,
d55a5a0fde094c9a118c2a93cd7956ce,Charlene Wolfe,,,,,,,,,,,
604544f32b9c2bdd633133258479a32f,"Hoof and Paw, Inc.",,,AG001ZGP,,Nucla,Montrose County,,81424,38.27013,-108.545867,32
0e01c5ecde6ce91f12bc564c1eb12ee4,Mile High Dachshunds Rescue.org,,,,,,,,,,,
f4aa1f73d2941cd63fffd47eca30f195,City of Trinidad,City of Trinidad,N/A,,,Trrinidad,LAS ANIMAS,CO,,,,
51f425f42280caefd7e24cd05eb98bd2,Doggy Dog World Rescue,Doggy Dog World Rescue,N/A,PL002TR8,"",Littleton,JEFFERSON,CO,80125,39.612653,-105.016198,1008
afa809cf03a7f8f3acb3ce9f9d71aae7,"Estes Park Pet Lodge, inc",,,PL000HM6,"",Estes Park,Larimer County,"",80517,40.376131,-105.523654,1012
1d5fe1a19ce9612712ed966aa12501f4,Every Creature Counts,,,PL000YUK,1245 Factory Circle,Fort Lupton,Weld County,,80621,40.08025,-104.810512,1072
9f383afe436563e64f028d1459b325bb,Fins & Feathers LLC,Fins & Feathers LLC,N/A,,,Colorado Springs,EL PASO,CO,,,,
11c087aac223d0c841b284aa147be56c,Lucky Day Animal Rescue of Colorado,Lucky Day Animal Rescue of Colorado,N/A,PL001F37,"",Aspen,PITKIN,CO,81611,39.190665,-106.819201,1063
bab09cbfcbe66303a3b8ff6f7b80a88e,LIFE IS BETTER RESCUE,Life is Better Rescue,N/A,PL0019X8,"",Denver,DENVER,CO,80219,39.738453,-104.984853,1444
fc03df67e450df8f0c8f6c12c884a6c9,PETCO / Dumb Friends League,,,PL0028C9,4100 E. Mexico Ave,,Denver County,,80222,,,
0d7f7c72f06850af35c93ced4bf1bae2,Doberman Rescue of Colorado,,,PL0009QW,"",Englewood,Arapahoe County,"",80113,39.649436,-104.98891,1395
63e1e9e18ddc25b517cf2ac73f7e3acd,Ferret Dreams Rescue and Adoption,,,,,,,,,,,
ddc509f2b08179edde6f183ad3bac228,THE DENVER DUMB FRIENDS LEAGUE,,,PL000027,"",Denver,Denver County,"",80231,39.738453,-104.984853,1444
e963e684f4dbbae2f62ed77c1ef0f7fe,Rancho Amistad,,,,,,,,,,,
9210a6d2c51170f711bdef473fa576de,ST Boulder,,,,,,,,,,,
b07f18b02592658317a1fe24b52f868f,Cooper's Companions,Cooper's Companions,N/A,,,Pueblo,PUEBLO,CO,,,,
45167d452bd685a7686129742c46f4bb,"Mile High Canine Rescue, Inc.","Mile High Canine Rescue, Inc.",N/A,,,Mead,WELD,CO,,,,
d593b36bef5c374abbe3cf726f4b1c6b,Parker's Animal Rescue,Parker's Animal Rescue,N/A,,,Durango,LA PLATA,CO,,,,
ab6297976d2fedf4af462693a4943959,Rocky Mountain Feline Recue,,,PL00028N,,Denver,Denver County,,80223,39.738453,-104.984853,1444
5770b82e577b4eaaa7976cbb48f8e678,Roice-Hurst Humane Society,,,,"",Grand Junction,Mesa County,"",81501,39.073978,-108.549864,1015
6681afcad901f64d3866bde89b00ad99,valley pets,,,,,,,,,,,
982eab71ad47e0593de8f38bade621d1,"English Springer Rescue America, Inc",,,PL000RHF,"",Elizabeth,Elbert County,"",80134,39.403175,-104.584086,88
930e75d1b77ac7485330ad1caa8451bc,Garfield County Animal Welfare Foundation Inc dba Rifle Animal Shelter,,,PL0006JK,,Rifle,Garfield County,,81650,39.533485,-107.783302,1449
633c81f442f05a8ca2a9f7009bb10bbc,Humane Society of Boulder Valley,,,PL000019,"",Boulder,Boulder County,"",80301,40.015831,-105.27927,85
7b0fe001709c74e170a856b1b567e363,Pals Animal Rescue,,,PL002Q7P,"",Colorado Springs,El Paso County,"",80911,38.835224,-104.819798,1447
131784d5bc2bfb20f27942d653432fe6,RezDawg Rescue Inc,RezDawg Rescue Inc,N/A,,,Centennial,ARAPAHOE,CO,,,,
a4dc7fa593746be4fe7f0fc3cb68e996,Denver Animal Protection,,,PL001BV6,,Denver,Denver County,,80223,39.738453,-104.984853,1444
fd31b1793c8af0d5f8f3459f905c66a8,"Humane Society of Fremont County,Inc.",,,,"",Canon City,Fremont County,"",81212,38.492332,-105.309685,1448
5b1cebbf5209e1feef14f450b9f26692,Metro Denver Parrot Rescue - The Perch,,,PL002LER,,Colorado Springs,El Paso County,,80905-1923,38.835224,-104.819798,1447
eb7334eb1af7690b2c2c107918024fd9,Moms and Mutts Colorado Rescue for Pregnant and Nursing Dogs,,,,"",Lakewood,Jefferson County,"",80227,39.665737,-105.092647,1008
760ee472aac98fda8142375c3f27ee73,Nikeno's Second Chances,,,PL000AAK,,Denver,Denver County,,80227,39.738453,-104.984853,1444
0487b2974263f49097aa84ad6292dbd4,Tonay Stephens dba Hoof & Paw,,,,,,,,,,,
f95ddb3ee2a70ebb25ffb153035ffd37,FOUND NATION ANIMAL RESCUE,,,,"",ARVADA,Jefferson County,"",80003,39.82682,-105.06527,1008
aa277fb322a4bb64cae1f845ee554c95,My Fairy Dawg Mother,,,,,,,,,,,
da34f9cf203422e650830c5443edf69f,Pointerrescue,,,,,,,,,,,
30fa997f7ef0503af1fa7f83e6f2a3f8,Town of Eads Dog Shelter,,,PL001P0G,15103 US HWY 287,,Kiowa County,,81036,,,
e3b4942bdcf6717c9dc12fe8eb5ba48f,Town of Walden Animal Shelter,,,PL000EZT,"",Walden,Jackson County,"",80480,41.560674,-74.187445,1007
04701293ab207ea514862d49d7e11d6f,Victory Service Dogs,,,,,,,,,,,
7e3801acd85b72a48677f6c0be241abb,William Adamson/Six Paws Sanctuary,,,,,,,,,,,
a1c615da9001cf71357e36926279713a,Animal Clinic of Julesburg,,,PL0004C6,"",Julesburg,Sedgwick County,"",80737,40.986476,-102.262325,36
0fabede91add18d4e2ec65e52e9a4e45,"Highland Veterinary Clinic,PC",,,PL0000GE,206 Second St.,,Weld County,,80610,,,
dfaea75e92853dc0b3ca78c86d0c43cc,Lucky Paws Rescue,,,PL0012FZ,"",Golden,Jefferson County,"",80403,39.749672,-105.216019,1008
7e0fca04eb761c353c99d53b62d2e23f,MaxFund Dog Shelter,,,,,,,,,,,
1c24ddf94a1e813c0dff8b300f4e1d72,"Second Chance Jack Animal Rescue, Inc.",,,,,,Jefferson County,,,,,
a70685f707b20681d8b6d1470d7362c3,Soul DOg Rescue,Soul Dog Rescue,N/A,PL002GQM,"",Fort Lupton,WELD,CO,80113,39.649436,-104.98891,1395
d3872155b71d988602cd3fd0445ea762,All Ears Basset Sanctuary,,,PL001F8Y,3121 Redhaven Way,,Douglas County,,80126,,,
38aa41d86a61d83c99e3fd133e276f94,Blue Moon Akita Rescue,,,,,,,,,,,
2f4eda875bc703b534401c447ac2128a,Friends of Retired Greyhounds,Friends of Retired Greyhounds,N/A,PL002N7X,"",Denver,DENVER,CO,80229,39.738453,-104.984853,1444
9269575c003ea535c688615e8777140c,Live Love Animal Rescue,,,,,,,,,,,
cd97c4dc6c2d19f3c522fc12afd9563f,Safe Place for Pets,,,PL001VC0,"",Manitou Springs,El Paso County,"",80829,38.857568,-104.912311,1447
109354474473cfec347ae046cc354541,"Safe Place, Inc. ",,,,,,El Paso County,,,,,
49173805c9e9c72eb2356ea90c3a1a8e,White Rose Sanctuary,White Rose Sanctuary,N/A,,,Colorado Springs,EL PASO,CO,,,,
4af3404aca13a8b31f52b6e6d18d6f65,Mountain High Service Dogs Inc,,,,,,,,,,,
7e021b579227261a3dc63824eb5219a7,Tumbleweed Country Kennels,,,,,,,,,,,
f267e2eae131dd7dfbdeba28f332f6d9,Up Pup and Away Inc.,,,,,,,,,,,
8291cf79719224fe42d59d475a1baab8,Mounatin High Service Dogs Inc,,,,"",Monument,El Paso County,"",80132,39.09592,-104.847227,1447
e6d1aeeea9b2309f6b6d6663ba053868,NOCO Humane,NOCO Humane,N/A,,,Greeley,WELD,CO,,,,
d28724f09e818c67086bfdac0a6ce454,Whimpers to Wags,,,,,,,,,,,
b42aa99ab1cfa575eed51a9e4d494b28,"Buck'n-R-Ranch Animal Rescue, Inc",,,,,,Douglas County,,,,,
a891a8320440988bf7e995c4945d9edd,ROCKY MOUNTAIN PUPPY RESCUE,Rocky Mountain Puppy Rescue,N/A,PL00172C,15492 County Road 6,Thornton,ADAMS,CO,80621,39.868977,-104.984149,82
a48a769a0392d602976dfbc91a46b1bb,Waggin Tails Canine Rescue,,,PL002198,"23404 E Dorado Pl #1D",,Arapahoe County,,80016,,,
42431525f7e769371e18e24aed89f1c5,City of Cortez Animal Shelter,City of Cortez Animal Shelter,N/A,PL000M2U,"",CORTEZ,MONTEZUMA,CO,81321,37.34862,-108.583778,1058
f14aa4f3e4591fd17d48a2da6dafe1ca,David & Mary Jackson,,,PL000GCU,"",Cortez,Montezuma County,"",81321,37.34862,-108.583778,1058
bac1d57dcedd4b1ed79cc297abb452bc,Fort morgan Humane Society,Fort Morgan Humane Society,N/A,PL00122S,"",Fort Morgan,MORGAN,CO,80701,40.253979,-103.801495,1059
f8e6657615e6d96364b73a6863141472,Homeless Boxer Care ,,,,,,Denver County,,,,,
1d49dcce192a133865740c98406b13be,JJ Helping Paws Inc,,,,,,,,,,,
230c87d08664e669709f78829244d568,"Oh Be Dogful Pet Ranch, Inc",,,,"",Crested Butte,Gunnison County,"",81224,38.874336,-106.91678,1005
92d2d615d5552bf2afff3f12ece0b465,Pound Pitties Dog Rescue,Pound Pitties Dog Rescue,N/A,,,Littleton,DOUGLAS,CO,,,,
88b80867fc3611e19d6183c5c8676742,Special Needs Animal Rescue League-SNARL,,,,,,,,,,,
0f63861dd5703057db50991700e16b3a,Douglas County Canine rescue ,,,,"",Castle Rock,Douglas County,"",80104,39.345057,-104.838409,3133
35680ac5e20834b82c39b3ec64ff007b,For Pets' Sake Inc.,,,,"",Cortez,Montezuma County,"",81321,37.35312,-108.642546,1058
7cf3ca0c8a9510c7c91af6cf84e6c3be,Happy Landings Animal Rescue,,,PL001VGS,2303 Strawfork Dr.,,Larimer County,,80525,,,
5cfc8822a80f1dfc30abfd0b4e663490,"Rocky Mountain Cocker Rescue, Inc.  (RMCR)",,,,,,,,,,,
91805f68877873a83ac33f3e7d8f2caa,Animal Kingdom,,,,,,,,,,,
c0779bc37e6ca51936f55d27cba6d111,Front Range German Shepard Rescue,,,,,,,,,,,
1cefce399d7fecf672ad429ef0d4f2a6,Headwaters Hounds,,,,"",Salida,Chaffee County,"",81201,38.549874,-106.075804,1398
5d645532f883b0286682c786af9bd85e,"Paws N Hooves, DBA Black Forest Animal Sanctuary,",,,,,,El Paso County,,,,,
b2c88cde6659adf343bcc2385eb3ba05,Sunrise Service Dogs,Sunrise Service Dogs,N/A,,,Colorado Springs,EL PASO,CO,,,,
1220138b8af4d74e585b086915ec10af,Valley Pets,,,,,,,,,,,
bee99b7e65c4ceb07a5abea5a6287e9b,Wild Blue Animal Rescue and Sanctuary,,,PL0015CT,"",Colorado Springs,El Paso County,"",80908,38.835224,-104.819798,1447
d96f0abcc26cd8f4173ab39b877da54a,David and Mary Jackson,,,,,,Montezuma County,,,,,
231e859ee50e85372b0dcf1761ffd9bb,True Blue Pet Rescue,,,,,,,,,,,
72321777417b6aa44c78249ca799d51c,True-Blue Pet Rescue ,,,,,,Arapahoe County,,,,,
671b72a367d6573a9666251360e9559e,Willow Run Feed and Supply,,,,,,,,,,,
7a5d75a3826e21765d6dcf4872d5d79b,Gritty Pittie Rescue,,,PL002RLS,"",Longmont,Boulder County,"",80501,40.165729,-105.101194,85
3a7044f9074a3e530bab4f223521bed8,L.O.L.A'S Rescue,,,,,,,,,,,
5ca441680ab683ca8bffe29eeae2b2fb,Roice Hurst Humane Society,,,PL001DGQ,362 28 Rd.,,Mesa County,,81501,,,
ac925bca89dbd4490787ecc588fbe619,Scroungy Dogs and Pretty Pups Rescue,,,PL002QJ1,"",Severance,Weld County,"",80550,40.523356,-104.851175,1072
3ccdc9d81e57cabc085d31905b23da73,Airedale Terrier Rescue and Adoption,,,,,,,,,,,
5e08fb7397cbaad51601ad5750900efd,Fort Collins Cat Rescue and Spay/Neuter Clinic,,,,,,Larimer County,,,,,
aee33a41f815ce8f4eabdd00513ec652,Grand Valley Pit Crew ,,,,,,,,,,,
41049a3c19f7ce1c2023a1cf96f5e477,"Highland Veterinary Clinic, PC",,,PL0000GE,,Ault,Weld County,,80610,40.582389,-104.733083,1072
8d0c041074baec4ed011b59f988ad448,Pets First Animal Hospital,,,,"",Colorado Springs,El Paso County,"",80922,38.891441,-104.701368,1447
bd414781968dc552493458d56b5568f9,Black Forest Animal Sanctuary DBA:Paws N Hooves DBA:Southern CO Animal Rescue,,,,,,El Paso County,,,,,
413c9ac1be2941741f5630a5fac176b6,"Cavalier King Charles Spaniel Club Rescue, Inc",,,,,,,,,,,
29efa813466ad29fd09eeafd2c91ad33,Colorado Springs All Breed Rescue,Colorado Springs All Breed Rescue,All Breed Rescue & Training,,,Colorado Springs,EL PASO,CO,,,,
25ac2b463742619a853c84bc1543a313,Golden Retriever Freedom rescue,,,,,,Jefferson County,,,,,
3c0a5a1d7899293c335991dbf52066e0,Intermountain Humane001qm2,,,,,,,,,,,
da9923011f06c8bc1407b782587103df,Pembroke Welsh Corgi Club of the Rockies Inc.,,,PL000XXV,,Littleton,Arapahoe County,,80123,39.612653,-105.016198,1395
507e105fe6b66cb8f33a8e02c267b53b,Roice-Hurst Humane Society at Delta,,,,,,,,,,,
6ce3d9a1b6911e601e31ccb6bb05718c,San Luis Valley Animal Welfare Society,San Luis Valley Animal Welfare Society,SLVAWS,PL000XC0,"",San Luis,COSTILLA,CO,81152,32.080299,-111.954399,1441
f8b7ecf1845ac7a2189eda6a9138fadd,"The Animal Debt Project, Inc.",,,,,,Weld County,,,,,
f996cb47125c7dda6875c07ebde744b2,"Chihuahua & Small Dog Rescue, Inv",,,,,,,,,,,
ddda488e9c5d6e9cf08c77ded3007a54,Dumb Friends League - Malone Center,,,,,,,,,,,
353c14b41de42bf4efca2ec52448781b,High Country Basset Basset Rescue,,,PL002N44,,Aurora,Arapahoe County,,80012,41.75527,-88.309507,1715
b1a8a2e2fc4b3c833daf559c3937e0a7,Pet Association of Estes Park,,,,,,Larimer County,,,,,
a200b5a764c21069743c9805e3e95f2b,"Rocky Mountain Collie and Sheltie Rescue, Inc.","Rocky Mountain Collie and Sheltie Rescue, Inc.",N/A,,,Pueblo West,PUEBLO,CO,,,,
6efd0e0666c0990ae5e82475091aa0a2,ST East,,,,,,,,,,,
1c68d43d70cfd450457c8a834fb558ff,Summit County Animal Control and Shelter,,,PL0000CN,"",Frisco,Summit County,"",80443,39.533112,-106.137393,1070
eb5fdefa1429d057c98ccf634bbf3692,All aboard Animal rescue,,,,,,Larimer County,,,,,
6933ff3b386041c371271fd78a062658,Annies Orphans,,,,"",DURANGO,La Plata County,"",81303,37.172158,-107.873843,1011
f2f8f1efa8e47ae039f9145236b183b3,Broadview Kennels & Grooming & Blue Moon Akita Rescue,,,,,,Arapahoe County,,,,,
6d53a9e03ed3635a48b99af5ea423e91,City of Brighton Animal Shelter,,,PL0000EJ,"",Brighton,Adams County,"",80601,39.986767,-104.812604,82
a89eecccc4fcdd5cafde9d0f95b400b7,Feline Rescue Network dba lookwhatthecatbroughtin.org,,,,"",Colorado Springs,El Paso County,"",80908,39.035907,-104.698606,1447
17a0f6bc8c6c1bcdc37b36e35174d0f0,Lucilles Voice Animal Education and Emergency Rescue Center,,,,,,Fremont County,,,,,
be88064b21f365f7cf48ed44492185f3,TOWN OF TELLURIDE ANIMAL SHELTER,,,PL0000BQ,12000 STATE HIGHWAY 145,,San Miguel County,,81435,,,
ff860e869144733c61e3ac861f7763aa,Team Leo Animal Rescue,Team Leo Animal Rescue,Vail Doggie Day Spa,,,Avon,EAGLE,CO,,,,
fe836411e1b6f8290e32cb20d0bb1b57,Until They're Home,Until They're Home,N/A,,,Laporte,LARIMER,CO,,,,
08451c9f5eac501b3570e148ff69ea70,Dizzy Dog Animal Rescue,Dizzy Dog Animal Rescue,Non Profit,,,Colorado Springs,EL PASO,CO,,,,
8174327857cec5f29ea547bef2ee3aa1,Great Pyrenees Rescue and Sanctuary,,,PL0029U8,"",Peyton,El Paso County,"",80831,46.650299,-92.021103,1447
19d8292255fb6b5d224e232fb1ef6cdb,Pets Plus LLC,Pets Plus LLC,Aquatic Dog,,,Denver,ARAPAHOE,CO,,,,
4a8103bfb79b69fd97f77178a0b8b381,Town of La Veta Animal Shelter,Town of La Veta Animal Shelter,N/A,PL000CMS,,La Veta,HUERFANO,CO,81055,37.503655,-105.006897,1006
a2e2b47da17d3f830051ddffbbc2646e,summit dog rescue,Summit Dog Rescue,N/A,PL002L3E,"",Boulder,BOULDER,CO,80304,40.015831,-105.27927,85
a2fa3f443a2d2786fa51115a51da9ad4,Black Canyon Animal Sanctuary,,,PL001566,"",Crawford,Delta County,"",81415,31.533766,-97.445383,32
813e23ab838e07a4669326cfd4660f34,Soul Dogs Inc.,,,,,,,,,,,
db3fe5e5e8dc8f267142f02a26654b26,Town of Dove Creek,,,PL000D9B,"",Dove Creek,Dolores County,"",81324,37.750716,-108.937634,1445
e4f9e168d553896d78dbf74b02005efc,the Meeker Cat Coalition,The Meeker Cat Coalition,Wild West Kitty Kingdom,,,Meeker,RIO BLANCO,CO,,,,
8d3d414086951a1b39d046e40a656229,City of Montrose Animal Shelter,,,PL00029L,"",Montrose,Montrose County,"",81401,38.478034,-107.876806,32
ae87251fd54c2eac1499c9be2b960f3b,Cooper's Companions Rescue,,,,,,Pueblo County,,,,,
401e674879f55195637c613e184c9ed9,Eastern Plains Animal Welfare Alliance EPAWA,,,,,,,,,,,
5c165f0fb0daba1c17852ff9d370f541,Natalia Kelley dba Colorado Animal Care Foundation - CACF,,,,,,,,,,,
b0c59a9c4a88f13b8f67f1b77b4a4067,Saving Dobermankind Animal Rescue,Saving Dobermankind Animal Rescue,Saving Dobermankind,PL002BT2,"",Fountain,EL PASO,CO,80020,39.923985,-105.081661,1444
a69652898a7b1c484cb0ab6f9219cfd2,The Dumb Friends League Buddy Center,,,PL000GQ4,4556 Castleton Ct,,Douglas County,,80104,,,
d5ffc19a22fc4e1eca948234fba93006,Do Over Dogs A Second Chance At Life,,,PL0027Z4,"",Broomfield,Broomfield County,"",CO,39.925616,-105.066301,86
3de33370d41d7b769edaafa15b84945e,Mountain Pet Rescue,Mountain Pet Rescue,N/A,PL001GBN,"",Granby,GRAND,CO,80446,41.951103,-72.786055,1450
6ac8f422ff4b2c7de8a4afe2194314a5,Pet Association Of Estes Park,,,,,,Larimer County,,,,,
da0e537f752ffd368f9e8c26cfb49147,Rocky Ford Animal Shelter,,,PL0000FG,,Rocky Ford,Otero County,,81067,38.047784,-103.718116,1060
b9bea549bfbead330fc3929eb0410b1c,Bernese Mountain Dog Club of the Rockies - BMDCR,,,,,,,,,,,
bb215f43e3cf57adc062c0edd3729853,Breeder Release Adoption Service,Breeder Release Adoption Service,N/A,PL001558,18500 CR 47.7,Boncarbo,LAS ANIMAS,CO,81024,44.801602,-68.771334,1724
f8624a3d1e4d2b20aca684b879582d1d,"Colorado Animal Rescue, Inc.","Colorado Animal Rescue, Inc.",N/A,PL000CUC,2801 County Road 114,Glenwood Springs,GARFIELD,CO,81601,,,
9cb88be3b6e1926e56ccca742d6f1263,Mother Gaia Rescue,,,PL002MCR,,Lafayette,Boulder County,,80026,30.22126,-92.018773,1629
a20636cd7ea413cd867959560aad5e7b,POSO Dog Rescue,,,,,,,,,,,
331ef8cf2f3c588bbf8ae9c2b0c3ff23,Garfield County Animal Welfare Foundation Inc DBA Rifle Animal Shelter,,,PL0006JK,,Rifle,Garfield County,,81650,39.533485,-107.783302,1449
9a21c82514da8b0637f808e8e9008cdf,Journey Home Animal Care Center,,,,,,,,,,,
fde1a1548db0b855f5f555c29c5a2aea,North Star Siberian Husky Rescue,,,PL001F29,"",Monument,El Paso County,"",80132,39.09158,-104.868237,1447
9290bcd20e315e7cd8ac33967c7080f9,Safe Harbor Lab Rescue,Safe Harbor Lab Rescue,N/A,PL000VPL,"",Evergreen,JEFFERSON,CO,80401,39.633517,-105.328888,1008
bdd71e5424928cecf773c1b1e7862c65,Summit County Animal Control,Summit County Animal Control,Summit County Animal Shelter,,,Frisco,SUMMIT,CO,,,,
f6d7f8d3835b6b8251f0ae0db9b36c7e,"Feline Rescue Network, dba",,,,,,,,,,,
74d56d6120f74701e3a6b8b4fdf25168,Humane Society of Moab Valley dba Petco,Humane Society of Moab Valley dba Petco,N/A,,,Grand Junction,MESA,CO,,,,
70df29eef0159e3a908b8e5133117bb4,Mile High German Shorthaired Pointer Rescue,Mile High German Shorthaired Pointer Rescue,N/A,PL002HPK,"",Centennial,ARAPAHOE,CO,80121,39.608742,-104.954882,1395
bce54e5f6c58c9592dae17986537fea2,Town of Akron,Town of Akron,N/A,PL0009AP,"",Akron,WASHINGTON,CO,80720,41.084821,-81.515607,37
46ee763adc41f78b209398e0446fe54a,Town of Limon Animal Shelter,,,PL0002H4,"",Limon,Lincoln County,"",CO,39.264004,-103.689247,30
c75831ade975c5ba094b1feb1a5de7a8,All Aboard Animal Rescue ,,,,,,,,,,,
751a3378b31fef1d3dc637329071e805,Animal Rescue of the Rockies Just Cats Cat Cottage,,,,,,,,,,,
fcfbd534e36ef15632773f2afcc91df6,Hair Force One Dog Grooming Salon LLC,,,,"",Alamosa,Alamosa County,"",81101,37.470901,-105.849477,83
40e1b35d0378cb227c3dfd2e500a6f3e,MaxFund Inc Cat Shelter,,,,,,,,,,,
c1e4e70824ee91449041ec3a13caf4bb,Operation Pets Alive,Operation Pets Alive,N/A,,,Spring,OUT OF STATE,TX,,,,
804661dbe51a490157dbccd1b653aa33,Rocky Mtn CockerRescue,,,AG001YFQ,,Parker,El Paso County,,80922,39.518515,-104.762773,3133
2f1022b7e747dc4040eac06188415741,Shiba Scout Rescue dba Colorado Shiba Inu Rescue,,,,,,,,,,,
3d88b7f6c40ab2a29cab94fa8ec7e898,Stray and Orphaned Animal Rescue,,,,,,,,,,,
a42645ec79cd44f19d12e57edb74b6a8,Clearwater Dog Training,Clearwater Dog Training,Nikeno's Second Chances,,,Lakewood,JEFFERSON,CO,,,,
12dc9ba9fa509ac6bed5d1e2c9a1030c,Colorado Liaison for Animal Welfare Alliance Inc,,,,,,,,,,,
8cde4ef0d77197dea7f2e856a2f0aac1,Purrendipity ,,,,,,,,,,,
c372bbfd47c6baf412baf02d5f844f53,Scales N' Tails (ST North),,,,,,,,,,,
a6e8195228a717b62cea83cc6a888fa7,All Aboard Animal Rescue & Shelter,,,PL001R08,"1721 West Harmony Road Unit #104",Fort Collins,Larimer County,,80526,40.588972,-105.082459,1012
21c6a6a57ed5e1b34b1019e641368e2c,La Plata County Humanesociety,,,,,,,,,,,
2af8c92decd2fd5b159ce4648b388230,NoCoKitties,,,,,,,,,,,
60560d4eb702beb4ef7e1ca1d40229e3,Noah's Ark Animal Welfare,,,,"",Trinidad,Las Animas County,"",81082,37.186718,-104.515244,1013
bbe2bffbad4fbb7a33951df57204b338,"Vibrant Pet, LLC",,,,,,,,,,,
51ec5ebbc50c26b2ea7e00116b7ff13e,Animal Attraction LLC.,,,,,,,,,,,
333eb435d1a969dfa655d23eb5928bce,Happy Haven Farm & Sanctuary,,,,"",Byers,Arapahoe County,"",80103,39.765917,-104.12751,82
5f26a44b4613ba72befae00610223863,OutPaws,,,PL001SVE,"",Littleton,Jefferson County,"",80127,39.612653,-105.016198,1008
3aaba23976eb729a68d919347f50a9c3,Puppies n Stuff,,,,"",westminster,Adams County,"",80234,39.91066,-105.006741,82
a2c5275d5cc26f30a0d870c92e8f0943,Someone2Love,,,,,,,,,,,
66e1865bf2a2e4aa03302790604600a7,The Animal Interest League and Sanctuary,,,,"",Delta,Delta County,"",81416,38.736655,-108.099446,1443
d29c5e79643077912cb9e6a13b55ce1a,BarkaBull,,,,"",Colorado Springs,El Paso County,"",80905,38.81761,-104.832663,1447
32289a5f43121a236f598cd8084f4a23,"Dalmatian Rescue of Colorado, Inc.","Dalmatian Rescue of Colorado, Inc.",N/A,,,Colorado Springs,EL PASO,CO,,,,
b04b40108c0cf8b57e67226247ba8219,Douglas County Canine Rescue,,,PL002D70,"300 e miller ct #1514",Castle Rock,Douglas County,,80104,39.375367,-104.859911,3133
50a7bb4224fbbc4e83e5df7d5dac1c54,Fromm Rescue To Forever,,,,,,,,,,,
407cc78cce8ce57e82face8a0e67e1de,Garfield County Animal Welfare Foundation inc dba Rifle Animal Shelter,,,PL0006JK,,Rifle,Garfield County,,81650,39.533485,-107.783302,1449
4b3d38afcaafbcc655db677eb41202a6,Lions Head Pet Center,,,PL002BCY,2047 Mt. Evans Blvd,,Park County,,80470,,,
5607317b8c049f7fa2d5c86d79cf6c11,pranaDOGS Behavior & Rehab Ctr,,,,,,,,,,,
4fac2196a2d97333c22b8cd3de150122,Certified Pound Hounds,,,PL002GG4,2228 Robin Dr.,,El Paso County,,80909,,,
c659c4aa97dc815975ee44d020f4d004,Estes Park Pet Lodge,,,,,,,,,,,
cc013bd1c93eeea75a59f4184e0113c9,Ferret Dreams Rescue & Adoption,Ferret Dreams Rescue & Adoption,N/A,,,Denver,DENVER,CO,,,,
bf0b68d3e13dc28fc20e62920dd31cfd,MaxFund Animal adoption Center,,,,"",Denver,Denver County,"",80204,39.7345,-105.020783,1444
a3c0961db2da6010bdb24e18c9fc4c19,Metro Denver Parrot Rescue -The Perch,,,,,,El Paso County,,,,,
85d6e3c362d42279057f8805e4bfb470,Oh Be Dogful Pet Ranch,,,PL001HSM,,Crested Butte,Gunnison County,,81224,38.870681,-106.980937,1005
9a4228ca973f840800c86c34a0c7616f,Animal Attraction LLC,,,,,,,,,,,
295c4592eb3f5504e316ea912df209ab,City of Burlington,,,PL000AUJ,,Burlington,Kit Carson County,,80807,44.475949,-73.212481,3204
dd1af17cb045fe8689b8fc51a5aecae2,"Indigo Mountain Nature Center, Inc.",,,PL000KRP,"",Lake George,Park County,"",80827,39.082037,-105.570509,1062
f37d957e0e45b031936db0384c89ac4b,NOCO Humane - Weld County,,,,,,,,,,,
c707b806541aaff9265800cb3ee5aa64,Rocky Mountian Collie and Sheltie Rescue Inc.,,,,"",Pueblo West,Pueblo County,"",81007,38.341733,-104.749697,34
ad9ae1608c562796737dfb456f125e3d,ASPEN/ PITKIN COUNTY ANIMAL SHELTER,,,,"",Aspen,Pitkin County,"",81611,39.171024,-106.822652,1063
a05d07d725b8fbcdca3d6bf1a4cef158,Blackhat Humane,,,,,,,,,,,
5dc1bd1dd9a6a6007741ff38c2aab4f8,County of Clear Creek Animal Shelter,County of Clear Creek Animal Shelter,Charlie's Place,PL000YBY,"",Dumont,CLEAR CREEK,CO,80436,40.940371,-73.995821,1439
8c9ef1b7408c73c70e7dec5a3cf65cbb,Found Nation Animal Rescue ,,,,,,Jefferson County,,,,,
313b68cd044b0333b9e86bde02738728,Front Range Reptiles,,,,,,,,,,,
bb5251efa445a931dd83dc514b88cdee,The Animal Hospital of Telluride,The Animal Hospital of Telluride,N/A,,,Telluride,SAN MIGUEL,CO,,,,
c84419aef17e9031eb8fd340456c7f26,The Denver Dumb Friends League,,,PL000027,"",Denver,Denver County,"",80231,39.738453,-104.984853,1444
9c8d8c575284fb7e88aee2f15c4db994,"Vintage Dog Rescue, Inc.",,,PL000N0U,"",Littleton,Jefferson County,"",80127,39.612653,-105.016198,1008
8167ed97e88ed58a2e5aab8a64e5d985,Graceland Animal Rescue & Sanctuary,,,,,,Mesa County,,,,,
8399b4042abbc38d87de4dc1eefbdfbb,Grand Rivers Humane Society,Grand Rivers Humane Society,N/A,PL000R56,"",Grand Junction,MESA,CO,81501,39.067379,-108.570816,1015
d82b36cc999b3840f08c4b4da02a55f1,HomeComings Dog Rescue,,,PL0026YA,"",Lakewood,Jefferson County,"",80226,39.710997,-105.088872,1008
ea9158f6d0d2e9ca8960914634e5c93b,Old Dogs New Digs,Old Dogs New Digs,N/A,,,Boulder,BOULDER,CO,,,,
afc4d0988dfcf06f19ffd8586f147da8,"Scroungy Dogs and Pretty Pups Rescue, Inc.","Scroungy Dogs and Pretty Pups Rescue, Inc.",N/A,,,Loveland,LARIMER,CO,,,,
2628a85a365fb8a7d37fcefae3834b8f,The Misfits Dog Rescue,The Misfits Dog Rescue,N/A,PL0027H1,"",Penrose,FREMONT,CO,80911,38.835224,-104.819798,1447
11c3c93902a3f50494eb20d07922cd5f,All Points West German Shorthaired Pointer Rescue,All Points West German Shorthaired Pointer Rescue,N/A,,,Northglenn,ADAMS,CO,,,,
ac51518d4b508643cb2a5f55aa8c8f80,Beaumont Pets Alive,,,,,,,,,,,
734d015070bd3c69a3cddf0a6d0b9c01,Beasties,,,,,,,,,,,
9128d940c17c1b01dd327f33def4d259,LISA PARKER'S PUPPIES,,,PL002SGW,"",Durango,La Plata County,"",81301,37.28225,-107.877762,1011
9149318d09a90b2a4a6eed4330234067,William C Adamson,,,,,,El Paso County,,,,,
5864007988cc20cda476b896f7ec7e9b,Ark-Valley Humane Society - AVHS South,,,,,,,,,,,
b39d1a3c52d20ff35bc36de5f2feaa26,Gina Chaffin dba Echo Acres,,,,,,,,,,,
dd7dc829bb7ccd38311fd7184713fbff,Golden Growls Senior Rescue,,,,,,,,,,,
ae958aaf2e3062a2c4bf1adfa25cdbfb,"HearthFire Enterprises, Inc dba Happy Haven Farm & Sanctuary",,,,,,Arapahoe County,,,,,
d611f2a0f27815937bdb1ffc876f3aa0,Humane Society of Moab Valley,,,,,,,,,,,
3d80490e6669c2bb1214f1b316fda2d1,Intuitive Dog Training LLC,,,,,,,,,,,
32c90d99bde70306454bd687a4c6b63c,Rocky Mountain Puppy Rescue,Rocky Mountain Puppy Rescue,N/A,PL00172C,15492 County Road 6,Thornton,ADAMS,CO,80621,39.868977,-104.984149,82
009d2267d47b60a0fa62c43f4d5460af,Sterling Ranch Specialty Shelter,,,,,,,,,,,
0b3d316391d25eeba594dfaf7a971e8f,Western Australian Shepherd Rescue,,,,"",Denver,Denver County,"",80210,39.679179,-104.963089,1444
bff8b81b198199447e8676a4b62fa798,5280 Reptile Room North,,,,,,,,,,,
1d1a5889946695393fafc79271c45bbd,COLORADO WYOMING VIZSLA RESCUE GROUP,,,PL00131Q,114 Summitview Drive,,Larimer County,,80524,,,
69ed145b205996973e51dd42d70e376b,Denver Dachshunds Rescue and Transport,Denver Dachshunds Rescue and Transport,N/A,PL001XEN,"",Calhan,EL PASO,CO,81069,40.98069,-73.683767,1447
e1a0654ec44638930941f8d60eeedecb,Indigo Mountain Nature Center Inc,,,PL000KRP,,Lake George,Park County,,80827,43.426217,-73.712416,2183
bf5672ae95dc72e2b4a48b588ade8f41,LAND OF AHS KENNEL,,,PL0004FZ,"",Fountain,El Paso County,"",80817,38.683108,-104.704554,1447
29127502aa8422d3045b16c618a5eb1e,Pearl's Sunrize Sanctuary,,,,"",Salida,Chaffee County,"",81201,38.549874,-106.075804,1398
d92a2a92392757c23f83946b3e7df873,"Rocky Mountain Collie and Sheltie Rescue, INC.","Rocky Mountain Collie and Sheltie Rescue, Inc.",N/A,,,Pueblo West,PUEBLO,CO,,,,
c166810a658e55b0383964e959d04d1e,The Lazarus Fund,,,,,,Pueblo County,,,,,
5939fd973e779060623f3c08b6a4a8b0,"Colorado Rescue Tails, Inc.",,,,"",Thornton,Adams County,"",80260,39.868821,-105.007125,82
d20c5dcb156b0ee83d0e8d90c455f6dc,Ft. Lupton Veterinary Hospital,,,PL000766,1025 1st Street,,Weld County,,80621,,,
2e159bb628a63d14ffe8a2fbdc169a34,"Gunnison Underdog Rescue, Inc.",,,,"",Gunnison,Gunnison County,"",81230,38.498592,-107.02781,1005
bebb2bebfaec74c42c3f7ed1e7931d3a,MaxFund Inc,,,,,,Denver County,,,,,
e96660c68afc459619cb990d7626283a,Mile High Meowies,,,,,,,,,,,
41b2f15071ac850a00f5575d562e2192,Rocky Mountain Scottie Rescue Inc,,,,,,,,,,,
8ba22413b4062a9ed6688612ee98bdde,Animal Welfare and Protection Society,,,,,,,,,,,
7f13950dfdc04db429317c1885c69b45,Divine Feline Inc,,,PL002NVN,"",Denver,Denver County,"",80219,39.738453,-104.984853,1444
a4e5b658ca0624c5450f7d3f08bc04b6,"International Hearing Dog, Inc.",,,PL000GZK,"",Henderson,Adams County,"",80640,36.034095,-114.984455,82
796c27be8bf698382114eada40ae4105,The Meeker Cat Coalition,The Meeker Cat Coalition,Wild West Kitty Kingdom,,,Meeker,RIO BLANCO,CO,,,,
72084b5bead1314a798ceeaf473c3281,City of Yuma,,,,,,Yuma County,,,,,
2550e68d4694d244cdfbede86a3f2ef5,Hope For Animals -Clear Creek Rescue,,,PL000UK0,1133 Lodgepole Drive,,Clear Creek County,,80439,,,
75a136fff59f76cd1375127e7998cdb4,Little rescue on the Prairie,Little Rescue on the Prairie,N/A,,,Log Lane Village,MORGAN,CO,,,,
807030a266ed9d2f358d65200a8866d3,Nikenos Second Chances,,,,,,,,,,,
864832b01c6a9dffbcdb25b18c1067c0,"Colorado Springs All Breed Rescue, Inc.",,,PL0009J7,"20 Mount View Lane, Unit C",,El Paso County,,80907,,,
fa03b4c32070049eafc856e3d817b168,Dumb Friends League - Buddy Center,,,,,,,,,,,
5506baa6867c16ee31e4fc288e2fb212,Eagle County Animal Shelter and Services,,,PL000AQS,,Eagle,Eagle County,,81631,43.69102,-116.354075,1659
2cb96ad38c7e5f9fea2ad95c7bdb590b,"Estes Park Pet Lodge, Inc.","Estes Park Pet Lodge, Inc.",N/A,PL000PZS,,Estes Park,LARIMER,CO,80517,40.376131,-105.523654,1012
1fd89056dad893f9ba42fe89390bbb9a,For Pets' Sake Humane Society,,,PL000WYX,19630 Rd. G,,Montezuma County,,81321,,,
36e7152eb00c78102fef4f74d6fd6f55,Pets R People Too,,,,,,,,,,,
7d753e535832f36ac3832f946b337401,The Animal Assistance League and Sanctuary,,,,,,Delta County,,,,,
09de3a1ef348dc8053be049be15c6243,Willow Run Feed and Supply Store,,,PL0002G6,5700 W 120th Ave,,Broomfield County,,80020,,,
369a465eb0b2013777c038cb256a5b53,7 Paws Rescue Ranch,,,,,,,,,,,
3ebbcfbb36b2051c66f4faa5d0bc9075,HEADWATERS HOUNDS KENNEL,,,,,,Chaffee County,,,,,
e23baaae676f21d2a504e222acc40e03,Walsh Police Department ,,,,,,Baca County,,,,,
28a4fc953b86453691b1c464d00ed867,Grand County Animal Shelter/ Robin,,,,"",Granby,Grand County,"",80446,40.037288,-105.887053,1450
2cf68f6e3e7325215d5216dd8efb856e,My Fairy Dawg Mother Rescue,,,,"",Aurora,Arapahoe County,"",80011,39.74187,-104.799113,82
e228852d9bceeecc206e019156cb7821,Stray and Orphaned Animal Rescue SOAR,Stray and Orphaned Animal Rescue SOAR,N/A,,,Denver,DENVER,CO,,,,
daa06c8b89bae17835e485cf0b0ebfc7,Town of Westcliffe,Town of Westcliffe,Town of Westcliffe Animal Shelter,PL000D8D,"",Westcliffe,CUSTER,CO,81252,38.130929,-105.463886,1442
97ff520b3829e042d6cde8a0758ed805,"Ark-Valley Humane Society, Inc.",,,,,,,,,,,
a61a26b690ec32eb031dcf5b43a46cd7,HearthFire Keep fka Happy Haven Farm & Sanctuary,,,,,,,,,,,
43052694a7fad8e7af414e502b40c00a,KOT Kitten Korner,,,,,,,,,,,
31f146f18660a14a6ba99d817595a2b4,Pembroke Welsh Corgi of the Rockes Rescue,,,,,,,,,,,
4b21b42527b7b9263d911a256f696faf,Mile HIgh Dachshunds Rescue Inc,,,,"",Engewood,Arapahoe County,"",80111,39.612472,-104.881366,1395
ecc9703caa1bbf2266c05f2d03f85ad9,Bernese Mountain Dog Club of the Rockies,Bernese Mountain Dog Club of the Rockies,N/A,,,Longmont,BOULDER,CO,,,,
0b98e821a936da7df8012f9255b941c1,Blackhat Humane Society,Blackhat Humane Society,N/A,,,Cortez,MONTEZUMA,CO,,,,
0bde30f16703e9c0de0da8e0cc8257d9,Foster Kitten Mama Rescue,Foster Kitten Mama Rescue,N/A,,,Castle Rock,DOUGLAS,CO,,,,
c0587e0b9a4b1251da5e7afca4f4a245,City of Lamar Animal Shelter,City of Lamar Animal Shelter,N/A,PL00008W,"",Lamar,PROWERS,CO,81052,38.086092,-102.618982,1064
58be6d97ae2a9e904f31bae6d847c311,Colorado Rez Muttz,,,,,,,,,,,
dcc17ea1269611f648f968a69e32d935,Dalmatian Rescue of Colorado,,,PL0006XU,"",Fort Collins,Larimer County,"",80526,40.588972,-105.082459,1012
4d350c078615db0eae83c7290c6925b9,Feline Rescue Network dba Lookwhatthecatbroughtin,,,PL002614,,Colorado Springs,El Paso County,,80909,38.835224,-104.819798,1447
e19e0af6fb572124a8e38dd1eed53f2b,"The Good Dog Rescue, LLC","The Good Dog Rescue, LLC",N/A,,"",Fort Lupton,WELD,CO,80233,39.900804,-104.951878,82
2f88226e2984917d1c25b6180754ec3e,Town of Plattevile,,,,,,,,,,,
b6971d875f3516b6b0492d4732995c1e,Trevor's Animal Rescue,Trevor's Animal Rescue,N/A,,,Parker,DOUGLAS,CO,,,,
bc36f473ccbfc81e7d04d38c758fc4ef,Willow Run,,,PL002T0P,,Broomfield,Broomfield County,,80020,39.923985,-105.081661,86
78c60b7aade91d61a51945fad499a608,Bernese Mountain Dog Club os the Rockies,,,,,,,,,,,
cc65c187a8bca8397c4780dff23f1608,Cheyenne Animal Shelter,Cheyenne Animal Shelter,N/A,,,Cheyenne,OUT OF STATE,WY,,,,
c97ece2e3b5d806f135e53ce9c4c6d82,Denver Samoyed Rescue,,,,,,,,,,,
eca24e6e35a6fe953e07a03461cd734c,Humane Society of Weld County,,,PL001UGW,"",Evans,Weld County,"",80620,40.377378,-104.692863,1072
65ec190513a2313b6afc7e629686be7c,Springer Spaniel Rescue Inc,,,,"",Berthoud,Larimer County,"",80513,40.298463,-105.106736,1012
a1a00997c7a76ab1a20d1778842165c7,All Points West GSP Rescue,,,,,,,,,,,
d6233392d5f1ccd7a28d3c9fc19bd4d4,Best Friends Forever,,,PL0011Y3,"6350 Oak St. #206",,Jefferson County,,80004,,,
30a7728780b1aea46318823ac17c0d6d,COUNTY OF PARK ANIMAL SHELTER,County of Park Animal Shelter,N/A,PL0008HD,"",Bailey,PARK,CO,80421,39.405602,-105.472801,1062
10e7e54660efe311430a8ddefec7109e,Cats Alive!,,,PL0024Q0,11864 Willow St.,,Alamosa County,,81101,,,
fc752abc037bd9f6492e4892b24cb85e,City of Walsenburg Animal Shelter,,,PL0006LF,305 Ray Sandoval Street,Walsenburg,Huerfano County,,81089,37.624695,-104.781409,1006
4e06d17f508bb98c1557dc7c72ad59a7,Jemez Valley Animal Amigos,,,,,,,,,,,
61cde1a378c011a291b79f5d2c102692,Snow Buddy Sled Dog Adventures,,,,,,,,,,,
16006b25e7f013dcd857b1dcdd4371b6,The Animal Debt Project,,,PL002H1W,"",Wellington,Weld County,"",80549,34.85615,-100.214209,1012
9c78af1f47b26f469918074f3d484ba1,The Sunshine Shelter,,,,"",Poncha Springs,Chaffee County,"",81242,38.510995,-106.080184,1398
5fdc8a1199dceba877ab216de37170b0,Lisa Haas dba Western Australian Shepherd Rescue,,,,,,,,,,,
6bd628ce4bc2e197f097b14537dbe03f,Colorado Animal Care Foundation,Colorado Animal Care Foundation,N/A,AG001Y6Y,"",Lone Tree,DOUGLAS,CO,80421,39.405602,-105.472801,1062
0c062aad2ce68b127be08efb4122134d,Colorado Basenji Rescue,,,,,,Denver County,,,,,
6a8b907750f5efe32b216f8637ca7dbe,Dakota Ranch Inc.,,,,,,,,,,,
07aa85f984bfc769021e7565a02c17e9,Feline Rescue Network dba look what the cat brought in,,,,,,,,,,,
a24c558a7c5f5b718be2b3fc8353cf34,La Plata County Humane Society,La Plata County Humane Society,N/A,PL000060,1111 S Camino Del Rio,Durango,LA PLATA,CO,81303,37.28225,-107.877762,1011
dbf8093932c38e517ea1bb15f6d13222,Cats Alive,,,PL0024Q0,"",alamosa,Alamosa County,"",81101,37.468191,-105.874293,83
59e0c87b4997af1f44c658571484c586,Cuddle Bug Chinchillas,,,,"",Aurora,Arapahoe County,"",80013,39.659198,-104.774814,1395
2f629bb15b1c08facd1d408515d9caef,Foothills Animal Shelter,Foothills Animal Shelter,N/A,PL001822,"",Golden,JEFFERSON,CO,80401,39.749672,-105.216019,1008
00222ca8a735df4f13a4bc23a88c73ad,PETS R PEOPLE TOO,,,,,,,,,,,
8617889649d2d0b9ed6ee226e3e537a1,The Biscuit Factory Cat Lounge,,,,,,,,,,,
7d03c7c07937adf2f3c09c061cd3d523,pet project,,,PL000JPX,"",pueblo west,Pueblo County,"",81007,38.322234,-104.739288,34
4847a2ed594c3a5f5d1f3776dd2a4398,Animal Attraction,,,,,,,,,,,
d0cf4cc663c90e707499d0bab5698150,Leadvilleshelter,,,,"",Leadville,Lake County,"",80461,39.24407,-106.307506,1010
600eda8b8b8024c601a37f5d620cd316,"Lost Our Home Pet Rescue of Western Colorado, Inc.",,,,,,,,,,,
17f7d80cdc5f36bdc90b5f61ea05c524,Broadview Kennels,,,,,,,,,,,
57af52e6fe77cbed7af3820b36b48444,Colorado Wyoming Vizsla Rescue Group Inc,,,,"",Arvada,Jefferson County,"",80007,39.839939,-105.186131,1008
92c4437a9cbabffd5d1c4b3ee3161a99,Happy Tails,,,PL00050S,23798 Hwy 24,Minturn,Eagle County,,81645,37.139702,-120.2733,1196
febc606d306edc879b1385f5826b44a9,MOUNTIAN HIGH SERVICE DOGS INC,,,,,,El Paso County,,,,,
a52c00a44e9eb0873910de6db10d4b1f,Town Of Akron,Town of Akron,N/A,PL0009AP,"",Akron,WASHINGTON,CO,80720,41.084821,-81.515607,37
ff40a1fe648fc77b76d06303547a6c58,Adams County Animal Shelter & Adoption Center,,,,"",Brighton,Adams County,"",80601,39.969078,-104.800393,82
544123dad3f80924517eaf86a6171dce,Aspen Boarding Kennel And Animal Shelter,,,,,,,,,,,
744058015a0ab72c72d3d36f63ecaf35,City of Aurora Animal Services,,,,,,,,,,,
a08a07cfc48fa4c03912f6430d666dd5,Fort Lupton Police Department,Fort Lupton Police Department,N/A,,,Fort Lupton,WELD,CO,,,,
a2a2a93b15eb0bd43d1f319575f68d7a,From forgotten to Forever transport,From Forgotten to Forever Transport,N/A,,,Walsenburg,HUERFANO,CO,,,,
f4d56aa3db79723bc54c8fc288b96e52,Ho-Bo Care Boxer Rescue,,,PL00082A,"",Denver,Denver County,"",80209,39.738453,-104.984853,1444
29d9a01538e848db703fc889da29ffe9,Longmont Humane Society,Longmont Humane Society,N/A,PL0003X5,"",Longmont,BOULDER,CO,80501,40.165729,-105.101194,85
9c332919040191657ac14106c210d9ac,Pet World,,,,,,,,,,,
88c7ddb470909bd97c3c50dbceab057e,"Southern Mutts Rescue, Inc.",,,,"",Longmont,Larimer County,"",80503,40.157538,-105.185328,85
0f8103593d31d3a726528144daa36ee2,Spirit Keeper Animal Sanctuary,,,,,,,,,,,
2f9724de4c8746c91f49715822d55407,Town of La Veta ,,,,"",La Veta,Huerfano County,"",81055,37.51458,-105.05242,1006
52e910a164f333529b08c646f7ea6c7c,Ark Valley Humane Society The Sunshine Shelter,,,PL001AC9,10128 US Highway 50,,Chaffee County,,81242,,,
71d4c01ba03da34a0b16b9df38970996,"No Hound Unhomed, Inc.",,,,,,,,,,,
6536052262ea2917be96827d543253f2,Wet Mountain Animal Welfare LLC,Wet Mountain Animal Welfare LLC,N/A,,,Wescliffe,CUSTER,CO,,,,
571ea2f6c6ec82e7c2879e634b119018,Cayleb's Kindred Senior Dog Rescue,,,,"",Denver,Denver County,"",80203,39.731179,-104.982637,1444
3ee639dbaf7e18d137f7de98fc362941,"English Springer RescueAmerica, Inc",,,,,,,,,,,
b6d1f8395236dce2e253fd6b179599f7,Evergreen Animal Protective League - Chow Down,,,,,,,,,,,
22072590690ca0de39592248f91d1ac0,Great Pyrenees Rescue & Sanctuary,Great Pyrenees Rescue & Sanctuary,Great Pyrenees Rescue ( Pyrescue ),,,Peyton,EL PASO,CO,,,,
2371ef04982395feafb99bf1464583b7,Humane Society of the Pikes Peak Region - Pueblo,,,,,,,,,,,
8c443e1a38b486283cd251d2db786aee,Kot Kitten Korner,,,,,,,,,,,
219a098ac1723c6c19884b1a65507e63,Surface Creek Animal Shelter,Surface Creek Animal Shelter,",Formerly Friends of Cedaredge Animal Control",,,Cedaredge,DELTA,CO,,,,
d821bb18fe58a5b28beada8bb8e5390f,Colorado Canine Rescue ,,,,,,,,,,,
9917b95163a2f07b0ef706615dbacf12,Animal Rescue of the Rockies Cat Cottage,,,,,,,,,,,
2c61718615bd1b095e8637ac4ac7420b,Ark-Valley Humane Society,,,,"",Buena Vista,Chaffee County,"",81211,38.853205,-106.167062,1398
e1085f874c518e557c059067dd580e0d,Chow Down - Evergreen,,,,,,,,,,,
6ba4938270a1db1a280ebedbc7d7068a,Inge Trump,,,,,,,,,,,
432bcaa978ce12a81d27669ae94f22fd,Loma Cat House,,,PL000ZAW,"",Grand Junction,Mesa County,"",81505,39.067379,-108.570816,1015
ceff65b27782990178c8b299f4100d20,Animal House Rescue & Grooming,,,,,,,,,,,
cd66054820c3d25c55018893f57d29c2,Jewels Senior Dog Rescue,,,,,,,,,,,
364308a84f50ec353e15966daa49df69,My Second Home Rescue,,,PL001G17,"",Carr,Weld County,"",80612,40.896099,-104.874397,1072
10c7994bc010c193b8b5f2a7aac2471b,William Adamson,,,,,,,,,,,
ffb884982c31b66ef9997df70dfe9e1d,"Ark-Valley Humane Society, Inc",,,PL0006A2,,Buena Vista,Chaffee County,,81211,37.734446,-79.354257,927
722fbbb9b1f39dc7eff29abaefe3a8e2,Aurora Animal Shelter,,,,,,Adams County,,,,,
ca8bc73d1a60edfd620d2f4ab6e903f2,Scales N' Tails (ST Boulder),,,,,,,,,,,
f60449cd8aaff168c7bdc88800f1effe,Town of Silver Cliff,,,PL000HZF,1011 Butler Street,,Custer County,,81252,,,
a4a2f99ee75af01a8bc6102b986e72f8,"Town of Westcliffe, Town of Westcliffe Animal",,,,,,Custer County,,,,,
db6afb3e63cac9f0d2ba526d99de858b,Blackhat humane Society,Blackhat Humane Society,N/A,,,Cortez,MONTEZUMA,CO,,,,
7201f623012f0afcf581e41664cc6d15,Chow Down Pet Supplies,,,PL000MLR,"",Evergreen,Jefferson County,"",80439,39.633517,-105.328888,1008
d93ffcd7441146792895270239dfdd0c,Deborah A Hill,,,,,,,,,,,
1823e4d325a4d102cca79ebc91304309,Laws4Paws,Laws4Paws,N/A,,,Pueblo,PUEBLO,CO,,,,
9b2a5bf94e6b5e87dec57f4e4b4d836b,Moms and Mutts Colorado Rescue,,,,,,,,,,,
e278ec310d1ee9cb521e29cadfb13d6c,"Rocky Mountain Feline Rescue, Inc.","Rocky Mountain Feline Rescue, Inc.",N/A,,"",Denver,DENVER,CO,80113,39.644251,-104.966455,1395
1bb95e23591db1dc0bb45244816d0796,Telluride Humane Society,Telluride Humane Society,N/A,,,Ophir,SAN MIGUEL,CO,,,,
7741e78ca528c090ba992292ae30d42e,Ark-Valley Humane Society South,,,,,,,,,,,
feccceb73d995398ab4504b516e0a907,"Big Bones Canine Rescue Service, Inc.","Big Bones Canine Rescue Service, Inc.",N/A,PL000PCZ,"",Windsor,WELD,CO,80550,40.479957,-104.907678,1072
9f2c3cdc837717ba32a97a893111fe70,City Of Walsenburg Animal Shelter,,,PL0006LF,305 Ray Sandoval Street,Walsenburg,Huerfano County,,81089,37.624695,-104.781409,1006
5f6454aa5062dafd4ef63dbaad08439c,Garfield County Animal Welfare FOundation INc,,,,"",Rifle,Garfield County,"",81650,39.71652,-108.013527,1065
99b3cd4c1af9015844cab912d14614ce,JJs Helping Paws Inc.,,,PL002NFF,,Pueblo West,Pueblo County,,81007,38.322234,-104.739288,34
b6422a8b8a336ef7c75f6eb8712cad32,Blue Lion Rescue,,,PL000GEQ,"",Yoder,El Paso County,"",80864,45.129877,-122.681388,1447
a717f78a676c15ef7a8112624bcd98b7,Cats League & Assistance of the Western Slope,,,PL0012LP,,Grand Junction,Mesa County,,81505,39.067379,-108.570816,1015
8d28918b1419e247f994f7f406809854,Hope for animals - clear creek rescue,,,,"",Littleton,Jefferson County,"",80127,39.572458,-105.141992,1008
d37a29c1871133e2a5a8c30e338e8185,"The Humane Society of Pagosa Springs, Inc",,,,,,,,,,,
7afeb0be02718faa208956a6be913091,Adoptable Animal Rescue Force,,,PL001X83,"",Woodland Park,Teller County,"",80863,40.889065,-74.192841,1071
cd2baf616f87b0518d221e19d9827e92,Front Range German Shepherd Rescue ,,,,,,Denver County,,,,,
afe22a78a3edf4ea69ccc933ead6ed04,Grand County Animal Shelter,Grand County Animal Shelter,N/A,PL0007AX,3475 County Rd 57,Granby,GRAND,CO,80446,41.951103,-72.786055,1041
cba9d3446988327abbabc5ccdc30e050,Hallcrest Kennel,,,PL0001Z9,2046 County Road 158,,Elbert County,,80107,,,
5f34d00018e545dfb9f9fe224f8383c4,One Dog at a Time,One Dog at a Time,N/A,,,Colorado Springs,EL PASO,CO,,,,
3e0f9285fcfc272068eee75b1f281f9f,Red Hill Animal Health Center,,,PL001U99,955 Cowen Drive,Carbondale,Garfield County,,81623,37.725277,-89.21672,1712
8ec285b7a0ea8ef679f272eb374ab5c8,Colorado Aussie Rescue,,,PL0010SK,9513 Milwaukee Ct,,Adams County,,80229,,,
2fdb35b3ca859c9963a898a42ba642ca,Colorado Saint Bernard Rescue,,,PL001EJG,3466 E County Road 20 Unit B-19,Loveland,Larimer County,,80537,40.394386,-105.070584,1012
674de8aa3e16a3600a2b05d3bf670da2,Humane Society of Pagosa Springs,,,PL000X87,"",Pagosa Springs,Archuleta County,"",81147,37.266324,-107.013125,1396
9dc77df4f44e16d1aba51c32627754bb,Metro Denver Parrot Rescue,,,PL001W3D,"",Colorado Springs,El Paso County,"",80134,38.81761,-104.832663,1447
b4658eaeec80d1af7333dbec5a298720,English Springer Rescue America,,,PL000RHF,,Elizabeth,Elbert County,,80107,40.661927,-74.211653,2532
4e3f4be7b32d948ff34233c2f66091a2,The Tullio's,,,,"",Northglenn,Adams County,"",80233,39.900804,-104.951878,82
fa81ed66c5b4d30d7eb13bade322bf84,All Aboard Animal Rescue,,,,,,Larimer County,,,,,
9943d68170397e0572378ef3874b4127,"Ark Valley Humane Society, Inc. - AVHS South",,,,,,,,,,,
0f7af7a2e2a4945d2eb0e5148e64b2a7,Izzy's place ,,,,,,Larimer County,,,,,
552975776739fb2cacde9ae094bd3c19,Life is Better Rescue (Dog Shelter),,,,,,,,,,,
1d3cc1bfbeecbc6256e1c1740f3ae247,Moe Moe's Bulldog Rescue of the Rockies,,,,,,Adams County,,,,,
2ec29f2724923d6c8a6c44140ba46332,Colorado Canine Rescue,,,PL0013LK,"",Englewood,Arapahoe County,"",80113,39.649436,-104.98891,1395
dfd093ff94e213a21e54d1e53d3945a1,"MY SECOND HOME RESCUE, INC.","My Second Home Rescue, Inc.",N/A,,,Carr,WELD,CO,,,,
19cd5ba0717e00a9891330d6d79a396b,Pet Paradise Inc,,,,,,,,,,,
a0432f85040545b21fb1e883cd6ca9e8,all mixed up dog rescue,All Mixed Up Dog Rescue,German Shepherd Rescue of the Rockies,,,Fort Morgan,MORGAN,CO,,,,
a6cb739a70bdae680536dcfe85e64547,"the good dog rescue, llc","The Good Dog Rescue, LLC",N/A,,"",Fort Lupton,WELD,CO,80233,39.900804,-104.951878,82
28bbf2adc49bb5b381cd15f481305279,Bounce Rescue,,,PL002GE8,18490 CR 1,,Weld County,,80513,,,
1e4d13dfafaad3a480ff4f6ba96878bb,Community Cats of Colorado,,,PL002LLD,2043 Eaton Street,,Jefferson County,,80214,,,
dd1fd5b7f684c61034b31d2e27496c28,"Happy Cats Haven, Inc",,,,"",Colorado Springs,El Paso County,"",80904,38.858711,-104.86804,1447
8f7c12eb4c3a40c292d97a271ccdeeea,Leadville/Lake Co Animal Shelter,,,PL001V62,428 E12th street,Leadville,Lake County,,80461,39.248791,-106.291951,1010
af26d6c07a7dc1170a31609453ab44f0,Northern Colorado Herpetological Society (Loveland),,,,,,,,,,,
3ac23361c98d57c4880b07a9efbb65c4,Aspen/Pitkin County Animal Shelter,,,PL000SL5,,Aspen,Pitkin County,,81611,39.190665,-106.819201,1063
b696adeeace1f1707cdaddb10c5fedf7,Beyond Rescue,,,,,,,,,,,
588691d132697e4c33c6f8dd8b57f1ab,COUNTY OF BENT/CITY OF LAS ANIMAS ANIMAL SHELTER,,,PL000BCB,"",Las Animas,Bent County,"",81054,38.065042,-103.225269,84
ca7b0c9d88a05bedbc415acc3c653087,Front Range German Shepherd rescue,,,PL001AJY,"",Denver,Denver County,"",80223,39.738453,-104.984853,1444
76979b6b1af9a70102d8a4576df5e927,Front range German Shepherd rescue,,,PL001AJY,"",Denver,Denver County,"",80223,39.738453,-104.984853,1444
82b7b0d32d128fbe0c7ec3151aa4a55e,Noah's Ark Animal Welfare Assoc.,,,,,,,,,,,
41b92a78bcdd7fa060ec06de17bfdcb3,Rocky Mountain Yorkie Rescue,Rocky Mountain Yorkie Rescue,N/A,PL0017GB,"",Parker,DOUGLAS,CO,80134,39.518515,-104.762773,3133
a39be2df291362722805609f3612e66b,Second Chance Humane Society,,,PL001F9W,177 COUNTY RD 10,Ridgway,Ouray County,,81432,41.421059,-78.728673,730
9e4adab8a1d36a2313c0ecb59ba7c1b7,Aspen Boarding Kennel & Animal Shelter,,,PL000SL5,101 Animal Shelter Road Unit 1,,Pitkin County,,81611,,,
ca33b3f99d9179564155e767ccc787f4,HearthFire Enterprises Inc dba Happy Haven Farm & Sanctuary,,,,,,,,,,,
25c993ce73382c86a9ec235c7c24d5ea,Victory Service Dogs Inc,,,,,,,,,,,
70ee4998c888895944a985d348aaf41e,Bark It Inc,,,,,,,,,,,
afc7389311ee370f64c7a4513692e944,DMK Rehoming,,,,,,,,,,,
5de8bf4b157be577d7139fdc6e411f3b,Lisa Parker's Puppies,,,PL002SGW,"",Durango,La Plata County,"",81301,37.28225,-107.877762,1011
447217dd10a838260c1ad7e24606806e,POLARIS Alaskan Malamute Rescue,Polaris Alaskan Malamute Rescue,N/A,,"",Golden,JEFFERSON,CO,80403,39.829062,-105.298581,1008
4221e119bd764c51a1c7e4a6fc81f92e,The Humane Society of Boulder Valley,,,,,,,,,,,
a3f957ff76398cd5825af2e0d378374c,"Whimpers to wags Rescue, Inc",,,,,,,,,,,
c1afdc811b2c8545b6e195fde7c8a100,The Dog Ranch,,,,,,,,,,,
15ffb4807bf2b3fe6a51fcbb0868e8ea,City of La Junta Animal Shelter,,,PL0006BZ,"",La Junta,Otero County,"",81050,37.970779,-103.535324,1060
15a32830f433b03be5221892445035b4,Flanders's Flying Friends Co,,,,,,,,,,,
6d3543f62502cd97ac7f22016885c118,Grey Ghost Weimaraner Rescue,Grey Ghost Weimaraner Rescue,N/A,,"",Monument,EL PASO,CO,80132,39.09592,-104.847227,1447
2738309d440a7793ebf7153e9f4600f0,Mile High German Shorthaired Rescue,,,,,,,,,,,
6889e74cf3b7b861deaf74325cce9224,Obe's Angels Rescue,Obe's Angels Rescue,N/A,,,Cortez,MONTEZUMA,CO,,,,
f0455d17712c8bb0b765e594dff89a9f,"Rocky Mountain Great Dane Rescue, Inc.",,,PL000HBS,12277 W Tennessee Ave,,Jefferson County,,80228,,,
226b9310ccf80965d6046b94c2439255,Rottie Aid ,,,,,,,,,,,
1ed92e3f7a86c99126ad6a2a00267ef9,Vintage Dog Rescue Inc,,,,,,,,,,,
f7c322bc20fc30c422be92cf09457abf,pranadogs behavior & rehab ctr,,,,,,,,,,,
24f28351db09580f19306c9bc133f17f,ARR Just Cats Cat Cottage,,,,,,,,,,,
7a1de0deeac6a2f17c15d628659b53d2,Airedale Terrier Rescue & Adoption,Airedale Terrier Rescue & Adoption,N/A,,,Boulder,BOULDER,CO,,,,
f9e50f76330a612e956c3c9c81daebe3,Circle 2 Rescue,,,PL002UES,,Evergreen,Jefferson County,,80439,39.633517,-105.328888,1008
1815e82dd814fcb39b1f1bda3b9e0b3d,Denver Cat Company,,,,,,,,,,,
31022967504747bf953d764db6a9d7de,Oh Be Dogful Pet Ranch Inc. dba Oh Be Dogful Rescue,,,,,,,,,,,
36c0d1e725fb3d1d16606d6e540ae357,Pet Project,,,PL000JPX,"",pueblo west,Pueblo County,"",81007,38.322234,-104.739288,34
580cab964a0e34563a4a75f76386c58c,Save the Giants,,,PL001J8L,"",Denver,Denver County,"",80205,39.738453,-104.984853,1444
d19484b9236fa59138fe13d174a64580,Springfield,,,,,,,,,,,
a99e9786a224f87124f15097bb35f65e,The Montrose Bully Breed Club,The Montrose Bully Breed Club,N/A,,,Montrose,MONTROSE,CO,,,,
d7da8728e090f9dfe84c57d2e869fb77,DUMB FRIENDS LEAGUE / HUMANE SOCIETY OF DENVER,,,PL000027,2080 S QUEBEC STREET,,Denver County,,80231,,,
d3381a2b6e48f768de1914adde3b436a,Colorado House Rabbit Soceity,,,PL000FR6,,Broomfield,Broomfield County,,80020,39.923985,-105.081661,86
5c2f612b82cfa96dd23f8dadef6afd89,"For Pets' Sake, Inc.","For Pets' Sake, Inc.",N/A,PL002MHF,,Cortez,MONTEZUMA,CO,81321,37.34862,-108.583778,1058
ebb91f77f5a73692a15f5f3bfbfd1c5c,My Fairy Dawg Mother Rescue Inc,,,PL001PP3,545 Ursula Street,,Arapahoe County,,80011,,,
42091b63b22ba42a8e74ff124f7518c8,Rescuing Unwanted Furry Friends Sanctuary,,,PL002EBN,626 Livvy Ct,Grand Junction,Mesa County,,81520,39.067379,-108.570816,1015
f12aaf092ea6a3309ff40569dade3478,Rocky Mountain Wildheart,,,,,,,,,,,
c63709cfd79f6720d70e1508b5125148,The Good Dog Rescue,,,,,,Adams County,,,,,
5b40ffe1d803ebfb9407c7c4211a49b4,Pawsecond Chance Rescue,PAWSecond Chance Rescue,N/A,,,Log Lane Village,MORGAN,CO,,,,
da2af6f64b6e61df47836e5f53e2a947,Ark-Valley Humane Society-BV,,,,,,,,,,,
d98259754173dcebf6b9d9f0aa78a6df,Fromm Rescue to Forever,,,,,,,,,,,
91549bb6c91b386ed24bc5fe609acf9f,Noah's Ark Animal Welfare Association,,,PL000M6L,224 North Chestnut,Trinidad,Las Animas County,,81082,37.168118,-104.506515,1013
28bcd666473deefded944071e1ec8cfd,Pawsitive Restorations Animal Rescue,Pawsitive Restorations Animal Rescue,N/A,,"",Aurora,ARAPAHOE,CO,80016,39.592658,-104.731172,1395
e8243cef3a2dd282a9f6a2ab49d37f92,Pointerrescue Org,Pointerrescue Org,Pointer Rescue Organization,,"",Ault,WELD,CO,80610,40.657041,-104.602026,1072
bc425c90e172eba48ff12f139a5e9bfd,Sunshine Canyon Dog Rescue,,,PL002H7J,4605 Moorhead,Denver,Denver County,,80305,39.738453,-104.984853,1444
c1cce94e4ecace923e24b93cab48d21b,Toby Darwin Foundation,,,PL00283T,626 North Hollywood St.,,Larimer County,,80521,,,
c4ba789720aeb6d53b5135bb30a9b99a,Bark It ,,,,,,,,,,,
a68d9e4abb8f5773668b2d1441256678,Low Riders of the West,,,,,,Denver County,,,,,
bae32cb43bdca5712c336cf2760e9c22,Mile High Meowies Inc,,,,,,,,,,,
9688341a6c034379c8493859d792e99f,DUMB FRIENDS LEAGUE / PETCO,,,PL0028C9,,Denver,Denver County,,80222,39.738453,-104.984853,1444
efe609dfd9a4d66f108cede1f15f43c1,Denver Animal Shelter,Denver Animal Shelter,N/A,PL001BV6,"",Denver,DENVER,CO,80223,39.698081,-105.001615,1444
45e79c9fd45a2daeabe0ad7401497d73,"Animal Rescue Connection, Inc.",,,PL000Z39,"",Longmont,Boulder County,"",80503,40.165729,-105.101194,85
f5804a4775bc11e7e4b36866ff21e01d,"Dogs Unbroken, A Colorado Non-Profit Rescue Organization",,,,,,,,,,,
e9d5adb374c4644f1eebcaa62ad44339,Homeward Bound Rescue of Colorado,Homeward Bound Rescue of Colorado,N/A,,,Greeley,WELD,CO,,,,
6e9d00a0ae5df591070b5b5e1254823a,PALS FOREVER ANIMAL RESCUE,,,PL00154A,P.O. Box 15602,,El Paso County,,80935,,,
d5dae70761371ea279ab4ab40d1ceb4c,Paragon Service Dogs,Paragon Service Dogs,N/A,,,Longmont,WELD,CO,,,,
235286b765b5d48a74ec76a9672de1b2,Paws and Effect Canine Rescue of CO,,,,,,,,,,,
33f40893521c4cb27eea3bae57c175c1,PawsCo,PawsCo,N/A,PL002N28,"",Denver,DENVER,CO,80231,39.738453,-104.984853,1444
1008cc215daaa11593ab536990539e11,Western Border Collie Rescue,Western Border Collie Rescue,N/A,,,Westminster,ADAMS,CO,,,,
a8f4ae9bd142e287d60bc2b6d09f0e65,Cane Haven Rescue,,,,,,,,,,,
a65f7579b26dc12451303b3daf2d8e0d,Mile High GSP Rescue,,,,,,,,,,,
bb418b5547e4f3c981b853a3dd808b9f,Misha May Foundation,,,PL000UWC,120 S Kendall St,,Jefferson County,,80226,,,
85a7460388b8591f33b71732cf9ecd5a,"Mountain High Collie & Sheltie Rescue, Inc",,,,,,Jefferson County,,,,,
76d7717a9b4c37626fa611abb2fec820,From Forgotten to Forever Rescue and Transport,,,,,,El Paso County,,,,,
7fb059f91fb382e5b7abe52b53be2dfc,Happy Haven Farm and Sanctuary,,,PL0023Q3,,Byers,Arapahoe County,,80103,39.710891,-104.22341,1395
5d44c4f3a0c50fe65d030b8815447a5a,MaxFund Dog Adoption Center,,,PL000926,1005 N. Galapago St.,,Denver County,,80204,,,
5e1fb1bbd3096fcce1f76c1fdbd72038,"VetCor of Colorado Springs LLC, Red Hill Animal Health Center",,,,,,,,,,,
ff621c9082cfe4a1e19178bd0f64a6e2,Roice-Hurst Humane Society-Delta,,,,,,,,,,,
3e378e70d7ddb79483bc0fff6f08fba1,Underdogs,,,,"",Boulder,Boulder County,"",80305,39.980884,-105.251971,85
678ca0180d6ebbf1f251e63f996d0ab3,Underdogs Animal Rescue,,,PL002UNA,,Boulder,Boulder County,,80305,40.015831,-105.27927,85
